{
"type": "FeatureCollection",
"name": "basin-boundary",
"crs": { "type": "name", "properties": { "name": "urn:ogc:def:crs:OGC:1.3:CRS84" } },
"features": [
{ "type": "Feature", "properties": { "PERIMETER": 380514.31361000001, "WASHD_NO": 1, "WSHD_NAME": "Kelani Ganga", "HECTARES": 232138.4978 }, "geometry": { "type": "MultiPolygon", "coordinates": [ [ [ [ 79.851731430916246, 6.960371687617373 ], [ 79.851695214631746, 6.960355004614804 ], [ 79.851695177031928, 6.960355004541695 ], [ 79.851731430916246, 6.960371687617373 ] ] ], [ [ [ 80.660468624817966, 6.766718652338676 ], [ 80.659923835393542, 6.766562920099852 ], [ 80.65953472852182, 6.766329419500141 ], [ 80.659379217109802, 6.765668052349805 ], [ 80.659846468673933, 6.764540006604067 ], [ 80.660975481861257, 6.762556270720685 ], [ 80.661053472660996, 6.761856055201443 ], [ 80.661014902157333, 6.76033887431216 ], [ 80.660606577266478, 6.759074471157688 ], [ 80.660567830581769, 6.758335327119434 ], [ 80.660762850980376, 6.756390278838024 ], [ 80.660727852579214, 6.754906646397603 ], [ 80.660724308136153, 6.754756392036377 ], [ 80.660218642996242, 6.753744828270798 ], [ 80.657728526017166, 6.751838061231886 ], [ 80.654265485199574, 6.750242263167176 ], [ 80.652047420345113, 6.749930509071715 ], [ 80.650043258265995, 6.750143973351572 ], [ 80.64883684228576, 6.750377081957431 ], [ 80.647824959545559, 6.750765844410682 ], [ 80.64545082458973, 6.752048996256625 ], [ 80.644322140151303, 6.752632230234168 ], [ 80.642415174070379, 6.75313745203497 ], [ 80.640352386737931, 6.754226151794771 ], [ 80.638134015106658, 6.755003585363154 ], [ 80.636966540097433, 6.755081067589605 ], [ 80.634982054673983, 6.754419183833273 ], [ 80.633561693460607, 6.754282626893971 ], [ 80.632160695897454, 6.754476736829887 ], [ 80.631032057897087, 6.754826528676654 ], [ 80.628035251721528, 6.755992708623683 ], [ 80.627217986791649, 6.756148074169645 ], [ 80.623910302141923, 6.755796965775184 ], [ 80.623131951542248, 6.7559523362506 ], [ 80.621847559463959, 6.756574371653094 ], [ 80.620874546529649, 6.757001991121593 ], [ 80.6192400087279, 6.757312696619354 ], [ 80.61789726603476, 6.757837448645108 ], [ 80.617002053209973, 6.758342888358275 ], [ 80.613343390552814, 6.760247899601194 ], [ 80.612409342324398, 6.760481005563124 ], [ 80.610736014077887, 6.760363749916261 ], [ 80.609724288876464, 6.760130003773666 ], [ 80.608868395751585, 6.759390584691713 ], [ 80.608090152845861, 6.759195814996247 ], [ 80.607039371289162, 6.759389969655619 ], [ 80.605210107409135, 6.760089579378636 ], [ 80.603847999094441, 6.76028362051479 ], [ 80.60161039327258, 6.760185589595522 ], [ 80.594488566968806, 6.760999986158107 ], [ 80.589740540042044, 6.761892974462276 ], [ 80.58614032270232, 6.763272626382992 ], [ 80.582637609455958, 6.764049312468888 ], [ 80.580535976457213, 6.764515311858526 ], [ 80.579017907074856, 6.765409452177011 ], [ 80.578317050686721, 6.766342814810865 ], [ 80.578160844919665, 6.767704311965151 ], [ 80.57839392322316, 6.768754750344791 ], [ 80.579288300313635, 6.770505681177438 ], [ 80.579443703557146, 6.771167071391633 ], [ 80.579365639913163, 6.771750565850028 ], [ 80.578859464893668, 6.772411693984068 ], [ 80.578158830283201, 6.772761530659406 ], [ 80.576251925768844, 6.772760767553761 ], [ 80.574947513118886, 6.77294217310217 ], [ 80.57386759525653, 6.773702079346906 ], [ 80.572979735985768, 6.774644298718336 ], [ 80.57296749157409, 6.774693172618476 ], [ 80.572964868780701, 6.774704512525247 ], [ 80.57263585763377, 6.776127020149294 ], [ 80.572083296167065, 6.778112308521069 ], [ 80.571273505181637, 6.779472420374617 ], [ 80.570390539622565, 6.779876511795587 ], [ 80.569507725878324, 6.779912913741932 ], [ 80.567815850104367, 6.779544518364117 ], [ 80.564983964036628, 6.778550563914103 ], [ 80.561306573450096, 6.776416395719877 ], [ 80.55990906072077, 6.775864256831505 ], [ 80.555752687214607, 6.775641814449859 ], [ 80.553739365606603, 6.775310965334103 ], [ 80.552742154551041, 6.775587378958889 ], [ 80.549954981167886, 6.776198995505138 ], [ 80.546498971209061, 6.7767545697747 ], [ 80.544325346603458, 6.776419258731212 ], [ 80.541817482680486, 6.77569376521966 ], [ 80.539719119957525, 6.774739126508033 ], [ 80.539649260885284, 6.77473948546471 ], [ 80.537937689592809, 6.774265369908871 ], [ 80.535461330190728, 6.773681655302089 ], [ 80.533786420187326, 6.772734248180583 ], [ 80.532512219791826, 6.77164140358767 ], [ 80.531292737620277, 6.770384749989223 ], [ 80.530346119476036, 6.769728949522256 ], [ 80.52907151667084, 6.769473464065933 ], [ 80.526959108224062, 6.769472405438074 ], [ 80.525502182772428, 6.769653706415432 ], [ 80.522478562221337, 6.770999235519792 ], [ 80.518871847900996, 6.772999773027528 ], [ 80.515920820691107, 6.774745777336442 ], [ 80.513119635472563, 6.776838646608197 ], [ 80.511950531479258, 6.777952984266235 ], [ 80.511312963045413, 6.778324296632024 ], [ 80.509560025002102, 6.7786419139105 ], [ 80.50716985950767, 6.778693711156502 ], [ 80.504301754471726, 6.778585953574049 ], [ 80.502283152686985, 6.779062678078112 ], [ 80.499759426571018, 6.780494791587323 ], [ 80.497687218791668, 6.781820959750825 ], [ 80.496731038379608, 6.782032792330761 ], [ 80.495562641106602, 6.781819755724221 ], [ 80.493757267596152, 6.780916138922167 ], [ 80.492748034300064, 6.781021746664274 ], [ 80.491738616778932, 6.781445912024663 ], [ 80.490941409360914, 6.782294944413765 ], [ 80.49067543704264, 6.782985003374844 ], [ 80.490993417348008, 6.784206333267647 ], [ 80.492054884027255, 6.785640465288389 ], [ 80.493169746533525, 6.786596786113026 ], [ 80.493541155033725, 6.78728721217565 ], [ 80.493593660628562, 6.788349108300747 ], [ 80.493168159550251, 6.789357636725049 ], [ 80.491945834249066, 6.790524985360946 ], [ 80.491546824018286, 6.791639713912339 ], [ 80.491280477906344, 6.792966891910433 ], [ 80.491066938181959, 6.794825032967591 ], [ 80.490641425689773, 6.795833558455998 ], [ 80.489950547436166, 6.796470276302572 ], [ 80.48819719019545, 6.797371838578573 ], [ 80.487984570107287, 6.797637180339385 ], [ 80.48803721932984, 6.79843360998673 ], [ 80.488833652294147, 6.798965008448438 ], [ 80.488952065303067, 6.799007696775115 ], [ 80.490161281438318, 6.799443621588556 ], [ 80.49334826259927, 6.799445464355888 ], [ 80.49488839407725, 6.7998710936124 ], [ 80.496056410592587, 6.800827439166566 ], [ 80.497064810468729, 6.802261531065235 ], [ 80.497303112375377, 6.803535905053764 ], [ 80.497568034116057, 6.804704107430325 ], [ 80.498257893727313, 6.805872550064103 ], [ 80.499266579662773, 6.806828798360527 ], [ 80.499584744623974, 6.807784656594225 ], [ 80.499637234018721, 6.808899645053438 ], [ 80.499371078132512, 6.809908267508267 ], [ 80.498520777129741, 6.81065109357893 ], [ 80.496342803761976, 6.810915324092713 ], [ 80.49490817122792, 6.811710903505523 ], [ 80.493526223585263, 6.81324981421412 ], [ 80.492382960268984, 6.81537288417828 ], [ 80.491744310817467, 6.817496243657102 ], [ 80.491530665636489, 6.819513662278893 ], [ 80.491742122712097, 6.821265861253834 ], [ 80.492378348054146, 6.823336865460305 ], [ 80.49328035866661, 6.825089463055495 ], [ 80.494182589729093, 6.826470406698398 ], [ 80.494235189237955, 6.827373021667431 ], [ 80.494102046438869, 6.827970243714413 ], [ 80.492706929178311, 6.829230402164581 ], [ 80.492042509822198, 6.829960048721746 ], [ 80.491842963761556, 6.83055723141074 ], [ 80.491576515374589, 6.832017139534912 ], [ 80.491443406429596, 6.832547994077633 ], [ 80.490947230689031, 6.832818123999802 ], [ 80.489224802446074, 6.832569561180029 ], [ 80.487852025442749, 6.831457489421713 ], [ 80.486086537318812, 6.830868129622976 ], [ 80.48464782594435, 6.830671169345296 ], [ 80.483208920095706, 6.83080104725115 ], [ 80.481704139891605, 6.831715303186757 ], [ 80.480330434054807, 6.832172054009514 ], [ 80.478760799755634, 6.832171102366392 ], [ 80.476210505605124, 6.831581229066599 ], [ 80.47457579522866, 6.831057276300285 ], [ 80.472940723580294, 6.831121633958118 ], [ 80.471959460734126, 6.831513235337492 ], [ 80.470520100701535, 6.83236212758408 ], [ 80.4686232956048, 6.832622411972781 ], [ 80.466988425616677, 6.832359907239751 ], [ 80.465222588516596, 6.832358787361699 ], [ 80.464110556460668, 6.832684920768047 ], [ 80.462867300680315, 6.833664651282912 ], [ 80.461558933132949, 6.834186757797087 ], [ 80.458681178348229, 6.834315633229699 ], [ 80.456719344639808, 6.833987512751887 ], [ 80.455999884878679, 6.834052410156055 ], [ 80.454625763474723, 6.83509740098893 ], [ 80.453579077432124, 6.83548892077781 ], [ 80.451388207048566, 6.835356732146908 ], [ 80.449752858782162, 6.835813219913621 ], [ 80.448509347512996, 6.837119752813468 ], [ 80.447919938303883, 6.838295985900299 ], [ 80.448376390318231, 6.840322709281908 ], [ 80.448440605908232, 6.842087695805477 ], [ 80.448178599595636, 6.842675834141901 ], [ 80.447328100308567, 6.843067471098001 ], [ 80.445039316664847, 6.842608344836716 ], [ 80.442227631076818, 6.841691272508484 ], [ 80.439219840289041, 6.840643312357636 ], [ 80.436538618609376, 6.840249243489195 ], [ 80.433595195741916, 6.840704762135104 ], [ 80.430454957916396, 6.842009909017452 ], [ 80.427510864900412, 6.843380542997767 ], [ 80.426332631221968, 6.844752429192102 ], [ 80.425644395122788, 6.846843714149299 ], [ 80.42485903897942, 6.847562197465153 ], [ 80.423943252627751, 6.847757640271339 ], [ 80.423355192810263, 6.846972797462286 ], [ 80.42178728056443, 6.844553039865574 ], [ 80.420873216940137, 6.842395227218822 ], [ 80.4201545549938, 6.841348813323539 ], [ 80.419173616513547, 6.841217359594331 ], [ 80.418257648383403, 6.841674264279977 ], [ 80.417341293052985, 6.842654111362332 ], [ 80.416096276278594, 6.845856227356707 ], [ 80.414590406497894, 6.848012256674806 ], [ 80.413345843968742, 6.850560683385162 ], [ 80.411709482079516, 6.852259028533104 ], [ 80.410570584617147, 6.853318782543663 ], [ 80.409265353501837, 6.85437319083261 ], [ 80.408209051729969, 6.854806965447659 ], [ 80.405599608071, 6.855549965291631 ], [ 80.404636285062381, 6.856232129783706 ], [ 80.402274481378427, 6.858030690295971 ], [ 80.401279419102764, 6.859581967788285 ], [ 80.400409305192824, 6.860202113105275 ], [ 80.399415292956661, 6.860387588356226 ], [ 80.397801032380698, 6.859393025598656 ], [ 80.396994923366634, 6.857592026556816 ], [ 80.396934116675524, 6.855915772021615 ], [ 80.396561953797431, 6.855232582268928 ], [ 80.395692572306473, 6.8549214937402 ], [ 80.394201592771964, 6.85516865113933 ], [ 80.39326985233248, 6.855167917911094 ], [ 80.391903987872581, 6.854297695793231 ], [ 80.391160073942018, 6.85243465567598 ], [ 80.390726348374372, 6.851068514283766 ], [ 80.38991934091996, 6.850447056755911 ], [ 80.388552752891158, 6.850508050959752 ], [ 80.386936956814182, 6.851500067134497 ], [ 80.385133657213274, 6.853919805049619 ], [ 80.383143689070252, 6.856711873824279 ], [ 80.382211593953144, 6.857145690163316 ], [ 80.381155719703784, 6.857020669248826 ], [ 80.379634837623428, 6.855839879014638 ], [ 80.376531440647881, 6.852919500024182 ], [ 80.375972553732623, 6.852732795201511 ], [ 80.37423300909829, 6.853103848838743 ], [ 80.373052554588313, 6.853413278699767 ], [ 80.370941244901331, 6.85266654329562 ], [ 80.369947708178898, 6.852293224189325 ], [ 80.36808413956814, 6.852415825486326 ], [ 80.366654750076833, 6.853283764134394 ], [ 80.365473502958736, 6.854524397243424 ], [ 80.364477121603372, 6.857503466073886 ], [ 80.363233160121098, 6.859426935746634 ], [ 80.362052472118947, 6.85998466290897 ], [ 80.360996493127956, 6.859983760470167 ], [ 80.359630839338507, 6.858927205031202 ], [ 80.358824343581716, 6.857746964270457 ], [ 80.358390440369092, 6.856691206095275 ], [ 80.357459076316061, 6.856255833351579 ], [ 80.354167420824524, 6.855694249767935 ], [ 80.353484850617903, 6.854886597287828 ], [ 80.35301219214945, 6.854150346230558 ], [ 80.352926568022411, 6.854016970887604 ], [ 80.353113889465604, 6.852899668403196 ], [ 80.354419878715504, 6.851100442571847 ], [ 80.354669525916663, 6.849734867367756 ], [ 80.355202348390563, 6.844147997650283 ], [ 80.355080110895983, 6.841850877316221 ], [ 80.354211916425882, 6.840236006628597 ], [ 80.35359175010278, 6.839118001857195 ], [ 80.353592829511967, 6.83787637334219 ], [ 80.35449751243965, 6.833221046554687 ], [ 80.355245552372637, 6.830117618567392 ], [ 80.355185372696553, 6.827882632236061 ], [ 80.354627545243247, 6.826516356838058 ], [ 80.353324648067016, 6.824839027726657 ], [ 80.351586329466897, 6.823906294546334 ], [ 80.351214850860387, 6.822540178070357 ], [ 80.351651416127524, 6.820491868755187 ], [ 80.351777098051627, 6.818815777426377 ], [ 80.35171633825918, 6.81726368681411 ], [ 80.352215113754738, 6.815091267166994 ], [ 80.351967643389173, 6.813973584818729 ], [ 80.351409838961928, 6.812607306454534 ], [ 80.350044010752995, 6.811923219973271 ], [ 80.348491258014562, 6.811921862731108 ], [ 80.346627463239585, 6.812478960393863 ], [ 80.344390838426278, 6.813221965431308 ], [ 80.342465586916092, 6.813034014659677 ], [ 80.340789387521127, 6.8121633826394 ], [ 80.339919902087459, 6.812100525137596 ], [ 80.33644062033467, 6.813339032103221 ], [ 80.334638300881082, 6.81457903289884 ], [ 80.33333308179806, 6.815571152250935 ], [ 80.331655194062094, 6.816562928287417 ], [ 80.330007331834011, 6.818672189552029 ], [ 80.329198581191619, 6.82009931953491 ], [ 80.328513705531108, 6.821899049439439 ], [ 80.327643004772966, 6.8231398751782 ], [ 80.326896407889251, 6.824504976030664 ], [ 80.326584129801418, 6.826367126707178 ], [ 80.326086087100123, 6.827608292433043 ], [ 80.324034489293766, 6.829655073728243 ], [ 80.322075056954574, 6.832757312004462 ], [ 80.320333168623904, 6.835673500576099 ], [ 80.318778182928099, 6.837969045072941 ], [ 80.317969656977823, 6.839085745154939 ], [ 80.316602105832203, 6.840201915341579 ], [ 80.315731045166984, 6.841753119956556 ], [ 80.313678927743339, 6.8442344166334 ], [ 80.312155710445225, 6.845722910779473 ], [ 80.31072452310508, 6.848391028528404 ], [ 80.310147370914081, 6.849290439418755 ], [ 80.309729198201325, 6.849942100334688 ], [ 80.308113077691644, 6.85112008465495 ], [ 80.306311326862058, 6.851552910574856 ], [ 80.303951204590945, 6.851302294944444 ], [ 80.302088610879025, 6.850431344136903 ], [ 80.300041205051485, 6.848008180086958 ], [ 80.296008936992095, 6.842789405225087 ], [ 80.292970747112207, 6.83738534786725 ], [ 80.291977869294897, 6.836453145240228 ], [ 80.290922262341269, 6.836141687766281 ], [ 80.290300886606133, 6.836389390861269 ], [ 80.289803362709677, 6.837009702734903 ], [ 80.288620413025924, 6.839802159368888 ], [ 80.28597727896539, 6.843089787168879 ], [ 80.285727380724623, 6.844517395320515 ], [ 80.285796238657099, 6.844752264806771 ], [ 80.286036882782057, 6.845573083054697 ], [ 80.286719258338621, 6.846442904156431 ], [ 80.289202572430625, 6.847687020457144 ], [ 80.291376135336009, 6.848123763271493 ], [ 80.292431458640692, 6.848745625837606 ], [ 80.293174851252957, 6.850732956555837 ], [ 80.293110198705364, 6.853278210566034 ], [ 80.29267434042859, 6.854333151945144 ], [ 80.291088477709081, 6.856256076042452 ], [ 80.288664167087362, 6.858053989244569 ], [ 80.284811491759029, 6.859540037775061 ], [ 80.282699115121602, 6.859972456160469 ], [ 80.281580206885209, 6.8607783654254 ], [ 80.280709440693983, 6.861894929758246 ], [ 80.279528472422712, 6.862638689323927 ], [ 80.277850507561439, 6.863444015102511 ], [ 80.275861313752813, 6.864869820453002 ], [ 80.273933515149622, 6.866978568345945 ], [ 80.272255915040049, 6.867411388795959 ], [ 80.270081899410371, 6.867347038510186 ], [ 80.269149890314594, 6.867594385231218 ], [ 80.267586068756913, 6.868956291519555 ], [ 80.266942722821625, 6.869516566918437 ], [ 80.265387307124413, 6.871873990550154 ], [ 80.262960713504981, 6.87565833714025 ], [ 80.261157382010467, 6.877456754847831 ], [ 80.261027667413941, 6.877521400371137 ], [ 80.260038663892615, 6.878014285673415 ], [ 80.258734055780067, 6.878137050642909 ], [ 80.256870988073558, 6.87770048690705 ], [ 80.255319652385722, 6.876208883553139 ], [ 80.253830846990056, 6.874344860309163 ], [ 80.252652840336353, 6.872294928428289 ], [ 80.251659709760446, 6.871610965974925 ], [ 80.25097669356964, 6.871361902217528 ], [ 80.249734355565863, 6.871360550564417 ], [ 80.248304241379927, 6.872662680488693 ], [ 80.247247979484314, 6.872909847214321 ], [ 80.246378681323463, 6.872598492543065 ], [ 80.244763980779808, 6.872286317156827 ], [ 80.243893932510176, 6.872657842036527 ], [ 80.24265035703209, 6.873773917808574 ], [ 80.24202891078933, 6.874021552662915 ], [ 80.24115927058142, 6.874020590235353 ], [ 80.240228823534835, 6.872840031406285 ], [ 80.23985722550762, 6.871846332843392 ], [ 80.24016987797765, 6.869984267983486 ], [ 80.240888554603387, 6.866073998797254 ], [ 80.240642498754468, 6.863900911915277 ], [ 80.240583616507337, 6.860983067031361 ], [ 80.240087932056937, 6.859865070632462 ], [ 80.238970891306195, 6.858932625935083 ], [ 80.237045805744842, 6.858495922900319 ], [ 80.236701216740983, 6.858487138858718 ], [ 80.234499156801419, 6.858430999523771 ], [ 80.232635495808594, 6.858615151494311 ], [ 80.231393684203155, 6.858179193057348 ], [ 80.230462940153956, 6.857309020026491 ], [ 80.230029748475459, 6.855880683946105 ], [ 80.230157341076833, 6.852900971704772 ], [ 80.230718468919207, 6.85103919342112 ], [ 80.23065817379586, 6.849425036394553 ], [ 80.230225686683639, 6.847375897784432 ], [ 80.22997877256708, 6.846009851872024 ], [ 80.229980662425803, 6.844333684333783 ], [ 80.229795442926317, 6.843340189959261 ], [ 80.229610504084491, 6.842098374400883 ], [ 80.22961218415449, 6.840608447554906 ], [ 80.230920809393169, 6.836823016280356 ], [ 80.232915142611191, 6.830803451370651 ], [ 80.232916462386157, 6.829623924759283 ], [ 80.232612010145132, 6.82920799469912 ], [ 80.232234280940489, 6.828691955488318 ], [ 80.231178808690629, 6.828318290833505 ], [ 80.22906654078335, 6.828750480920894 ], [ 80.226612798689587, 6.829058114737759 ], [ 80.224500313352962, 6.829676525012077 ], [ 80.223071189088131, 6.830171543233604 ], [ 80.222263954834645, 6.82998438280627 ], [ 80.221705662530866, 6.829362942975131 ], [ 80.221334768942739, 6.827810511852277 ], [ 80.221835836649575, 6.824148344354269 ], [ 80.221963809698224, 6.820858232443349 ], [ 80.222276623318791, 6.81887201759154 ], [ 80.223522417462505, 6.815707335128452 ], [ 80.223524532804944, 6.813844926412907 ], [ 80.223276801333995, 6.813223841562796 ], [ 80.222426716936511, 6.812882844889492 ], [ 80.222345588595232, 6.812850301555959 ], [ 80.221538312436977, 6.812725222401465 ], [ 80.220667794021793, 6.813593355351692 ], [ 80.219733743201601, 6.815703020493404 ], [ 80.218800466236999, 6.817129800412635 ], [ 80.216996933298788, 6.819176381901828 ], [ 80.216685598394662, 6.819858907257052 ], [ 80.216435943613263, 6.820913984979298 ], [ 80.216496552417325, 6.822217740613494 ], [ 80.21717776501454, 6.823956771854815 ], [ 80.217051900845718, 6.825384473593418 ], [ 80.216180419757265, 6.827059637883368 ], [ 80.214997085425239, 6.829851884433383 ], [ 80.214622407324441, 6.831589698260196 ], [ 80.213751121053321, 6.833078615713721 ], [ 80.213375498631706, 6.835623469474454 ], [ 80.213187793643087, 6.836802775836368 ], [ 80.212611226409265, 6.837205169208246 ], [ 80.212566168126571, 6.837236615878359 ], [ 80.211758421898949, 6.83748399803671 ], [ 80.21039267987976, 6.836861606102767 ], [ 80.209027667672913, 6.835618409739846 ], [ 80.207539458058832, 6.833505943548156 ], [ 80.206795066588711, 6.83269802933103 ], [ 80.205988055591149, 6.832324601651773 ], [ 80.204123982213886, 6.832943210858438 ], [ 80.20319223722845, 6.833004192494307 ], [ 80.202136636562642, 6.832754625395873 ], [ 80.201764482675884, 6.832319624637767 ], [ 80.201394388413945, 6.830146383272675 ], [ 80.20077732508814, 6.826731247274958 ], [ 80.200998167816465, 6.823813743474611 ], [ 80.202057269625357, 6.821083469465282 ], [ 80.202246678030548, 6.818476327192033 ], [ 80.201938109830223, 6.816799799381735 ], [ 80.201194045535843, 6.815743558673429 ], [ 80.199642345969593, 6.814872601706584 ], [ 80.199084027225297, 6.814313219163578 ], [ 80.198402892718732, 6.812574168188634 ], [ 80.197410850882278, 6.811145147780685 ], [ 80.196605213775143, 6.809654267418342 ], [ 80.196234042753233, 6.808412223703836 ], [ 80.196795158841255, 6.806612567963699 ], [ 80.196734528081492, 6.805370893599348 ], [ 80.196610829519017, 6.804936185749018 ], [ 80.194748263905183, 6.804375247121524 ], [ 80.194003417081532, 6.804001877757072 ], [ 80.193507669928593, 6.803070084284279 ], [ 80.193508857730237, 6.802076804283356 ], [ 80.1928269401497, 6.801020627690444 ], [ 80.191648392207412, 6.799777615317728 ], [ 80.190654977878168, 6.799528103785049 ], [ 80.189846989510741, 6.800023773855556 ], [ 80.188727266670696, 6.801512347766879 ], [ 80.187981155576892, 6.802194328860725 ], [ 80.185309562958565, 6.802998139183477 ], [ 80.184004628791598, 6.803555275966646 ], [ 80.18251170452973, 6.805477939284425 ], [ 80.18195152333584, 6.806470535933915 ], [ 80.181826095157348, 6.807463662198301 ], [ 80.182164355118616, 6.810195592496505 ], [ 80.182224720460439, 6.811623504862371 ], [ 80.181987731879431, 6.812523469361818 ], [ 80.181538340021874, 6.814230024392185 ], [ 80.180853395351505, 6.8156570253703 ], [ 80.179361180012407, 6.81695887564586 ], [ 80.17911091339252, 6.818448486078931 ], [ 80.178612741278315, 6.819503232452393 ], [ 80.177866663703782, 6.820123114031144 ], [ 80.176251280200802, 6.820555683059307 ], [ 80.175318562176898, 6.821423649344774 ], [ 80.174104345942325, 6.823905340448095 ], [ 80.17285728634657, 6.827814821822321 ], [ 80.171112774455608, 6.832158236284096 ], [ 80.170674276414388, 6.835137518066689 ], [ 80.170358830509997, 6.839048148491096 ], [ 80.16992295985348, 6.839916720145878 ], [ 80.168306490720724, 6.841156290826466 ], [ 80.167311682401603, 6.841962078646687 ], [ 80.166191316571869, 6.843823060759394 ], [ 80.165382836750396, 6.844629078235027 ], [ 80.16308270780047, 6.846178164561159 ], [ 80.160906553443894, 6.847913634847557 ], [ 80.159601470639814, 6.848470691484843 ], [ 80.158669855644845, 6.848407424841767 ], [ 80.158049440228552, 6.847847917083925 ], [ 80.157927594253806, 6.845985374047517 ], [ 80.157680175234177, 6.845178023622461 ], [ 80.156873507075218, 6.844556197373086 ], [ 80.15563197519522, 6.843995892793343 ], [ 80.153333819493568, 6.843992944152937 ], [ 80.152030341831576, 6.843308392081416 ], [ 80.150975717350008, 6.842313760316603 ], [ 80.150852776091099, 6.841320329452168 ], [ 80.150822918885979, 6.840485473255386 ], [ 80.150792828765589, 6.839644105113236 ], [ 80.150607455796575, 6.838898911730066 ], [ 80.149676584617026, 6.838276914753069 ], [ 80.14837328871576, 6.837468195694727 ], [ 80.148218814847482, 6.836847200725393 ], [ 80.148964632895485, 6.836475688746447 ], [ 80.150703588754411, 6.836602093346238 ], [ 80.151325022176778, 6.836354576166843 ], [ 80.151636458742061, 6.835672102324088 ], [ 80.151513676577792, 6.83455451250865 ], [ 80.150521582358309, 6.833249564017176 ], [ 80.149280488714325, 6.832378848997443 ], [ 80.149156347491143, 6.832316609106957 ], [ 80.149032688088752, 6.831881892692151 ], [ 80.149220625436001, 6.83064054501838 ], [ 80.149595293608627, 6.829089040467857 ], [ 80.149474440929609, 6.826481544003834 ], [ 80.14891681507315, 6.825425472150714 ], [ 80.146434596195732, 6.823746114058124 ], [ 80.142306173233138, 6.822312918246809 ], [ 80.138766918136056, 6.821563335922771 ], [ 80.137959498146614, 6.821562276325536 ], [ 80.13628124021696, 6.822553339931118 ], [ 80.134663279960776, 6.824910222833626 ], [ 80.1336065123472, 6.825591699007497 ], [ 80.132798757167677, 6.825838947098584 ], [ 80.131060180711174, 6.825464164970562 ], [ 80.13012936264515, 6.824842134595932 ], [ 80.128952096005321, 6.822729870987605 ], [ 80.128705149307947, 6.821612114457079 ], [ 80.128706887745665, 6.820308451265981 ], [ 80.129082105622629, 6.818384492074381 ], [ 80.129517940940602, 6.817578040700057 ], [ 80.129642736488037, 6.817143651337505 ], [ 80.128464991263627, 6.815403863101123 ], [ 80.127161794593462, 6.81459509494831 ], [ 80.125920129181125, 6.81422096096507 ], [ 80.124119076934278, 6.814156470875087 ], [ 80.123124846873807, 6.814527612733476 ], [ 80.122253578638393, 6.815830106428452 ], [ 80.12150794456457, 6.816077420220612 ], [ 80.120886861427152, 6.816076583725486 ], [ 80.11744246039629, 6.814147475322175 ], [ 80.115767062591061, 6.813027778425147 ], [ 80.113223519798936, 6.810913627947677 ], [ 80.113038043851134, 6.810292583757999 ], [ 80.113040075605895, 6.808802686922653 ], [ 80.113602169864905, 6.806506523347741 ], [ 80.114038355019474, 6.805451770747514 ], [ 80.115965520857216, 6.80408864468084 ], [ 80.116649283534358, 6.803655016458301 ], [ 80.116588186340934, 6.802909983229571 ], [ 80.116216725211544, 6.802040371306806 ], [ 80.115347487823215, 6.801852955635241 ], [ 80.112863062799988, 6.801973738307121 ], [ 80.111620765538078, 6.802096203851307 ], [ 80.110565720801219, 6.801536051457331 ], [ 80.109356263282606, 6.80035489443768 ], [ 80.108239374638245, 6.799608415580933 ], [ 80.106811703998616, 6.799047745087408 ], [ 80.105197035239541, 6.798983445977658 ], [ 80.104940864903739, 6.798795126300321 ], [ 80.104266388689538, 6.798299294213656 ], [ 80.103025988369325, 6.797056001769516 ], [ 80.10265386951599, 6.796683013525914 ], [ 80.102095091050302, 6.796558083231356 ], [ 80.101349394352752, 6.796867446932731 ], [ 80.100354929779797, 6.797424780709755 ], [ 80.099981434035897, 6.798045052997586 ], [ 80.099668663220712, 6.799658673363257 ], [ 80.098860336253253, 6.800340419627918 ], [ 80.097866467230361, 6.800463195173115 ], [ 80.096377396629762, 6.799405777616671 ], [ 80.094888072226169, 6.798534592574969 ], [ 80.093832448958821, 6.79840895802358 ], [ 80.091658575553836, 6.798530067709451 ], [ 80.090664972101806, 6.798466592332748 ], [ 80.089113294192785, 6.797781539740134 ], [ 80.088120833219563, 6.796911035603165 ], [ 80.087564341507544, 6.79517204154287 ], [ 80.086573821218948, 6.792935802735848 ], [ 80.086264702714701, 6.791942103838531 ], [ 80.086515141800405, 6.790514644020017 ], [ 80.088380906811253, 6.788654910718004 ], [ 80.088381782305362, 6.788034122975809 ], [ 80.087823895024954, 6.78728838984534 ], [ 80.085776038640134, 6.786168078267655 ], [ 80.083293729860003, 6.784860906133288 ], [ 80.080937499703765, 6.782250246897477 ], [ 80.080132898747749, 6.780324657973324 ], [ 80.079205337889292, 6.777529789580711 ], [ 80.079371976509208, 6.774351486532235 ], [ 80.078818133539755, 6.770812399554132 ], [ 80.078137353588247, 6.769197468585942 ], [ 80.077641542275984, 6.768513931870772 ], [ 80.076710423949123, 6.768264300589752 ], [ 80.075468015630406, 6.768572900359874 ], [ 80.074536453464219, 6.768633641134616 ], [ 80.07354154438282, 6.769563343865654 ], [ 80.072733819858314, 6.769872560059458 ], [ 80.071429128523405, 6.770305209885242 ], [ 80.070683141836795, 6.770862812503836 ], [ 80.070247556377666, 6.771482937084865 ], [ 80.070369871069815, 6.772786694606101 ], [ 80.070554015996535, 6.774276767168412 ], [ 80.070573163953142, 6.774991135746048 ], [ 80.070466821045287, 6.776653410461829 ], [ 80.069909359711545, 6.778799908029678 ], [ 80.069144508839599, 6.780599765127303 ], [ 80.06803367776304, 6.782052779875376 ], [ 80.06498075055768, 6.784749786067693 ], [ 80.063871313329727, 6.785233042786833 ], [ 80.061722946147668, 6.785368438879115 ], [ 80.059297803515364, 6.785226348356919 ], [ 80.058050177524635, 6.785432317571106 ], [ 80.057426007000331, 6.785777737086769 ], [ 80.057126146193212, 6.786424664290243 ], [ 80.057008905478028, 6.786677601751655 ], [ 80.057144943432291, 6.788409492517995 ], [ 80.05745330304633, 6.790765045625498 ], [ 80.057726811856398, 6.793259082486071 ], [ 80.057654858776644, 6.795059934125991 ], [ 80.057319986834884, 6.796445627534219 ], [ 80.057236520710575, 6.796791007123163 ], [ 80.056193375235878, 6.799283099702684 ], [ 80.056053037929885, 6.800460440849186 ], [ 80.056051397889689, 6.801568719374465 ], [ 80.056534331412124, 6.803024052034976 ], [ 80.056809884790212, 6.804132740222459 ], [ 80.056670161180264, 6.804894476890318 ], [ 80.056288302585216, 6.805378785187824 ], [ 80.055732786534236, 6.806139906240133 ], [ 80.054275975453209, 6.807176760337424 ], [ 80.053096868565561, 6.807867684668751 ], [ 80.051777302597984, 6.809805211151729 ], [ 80.050526921376516, 6.811812103473474 ], [ 80.050316643116915, 6.813404940797002 ], [ 80.050523403134449, 6.814167191305687 ], [ 80.050799152972161, 6.815137347057956 ], [ 80.050658690510204, 6.81638395129167 ], [ 80.0506034797654, 6.817917774854109 ], [ 80.050586388061689, 6.818392598873161 ], [ 80.050862346602401, 6.819224220135831 ], [ 80.052038901604945, 6.82026498717708 ], [ 80.052176675716311, 6.820819332144164 ], [ 80.051897922353561, 6.821857928114757 ], [ 80.051428020969325, 6.823277209312274 ], [ 80.051078538801804, 6.825268125787995 ], [ 80.049949930377423, 6.82691153903462 ], [ 80.04994958033005, 6.827100518855083 ], [ 80.049035771758597, 6.827631477807413 ], [ 80.047353581027281, 6.82821346982306 ], [ 80.046475053871887, 6.829088923146521 ], [ 80.045778063917965, 6.830768357242097 ], [ 80.045338135469592, 6.831644468108323 ], [ 80.044167303788441, 6.832446410888906 ], [ 80.041314917512537, 6.83339193293352 ], [ 80.040144519872726, 6.833901607862958 ], [ 80.039046331436197, 6.834995904410123 ], [ 80.037655954457378, 6.83594362394275 ], [ 80.036630857558947, 6.837038025219649 ], [ 80.036116910548458, 6.838498526523814 ], [ 80.035968135501889, 6.840178778076199 ], [ 80.03545451788267, 6.841420085568474 ], [ 80.034712071353326, 6.842178841361833 ], [ 80.032599030997758, 6.844338277788149 ], [ 80.030511543895116, 6.846965376760815 ], [ 80.030143546229894, 6.848572221353681 ], [ 80.029264046104672, 6.850032147114216 ], [ 80.028385332294761, 6.850980622832076 ], [ 80.027288096585536, 6.851417309184037 ], [ 80.025899465489303, 6.851195963712861 ], [ 80.02378025480003, 6.850681221624984 ], [ 80.022318410910103, 6.850532816302613 ], [ 80.020563697074195, 6.850676205062556 ], [ 80.018954617136885, 6.851185135379187 ], [ 80.018004843915733, 6.850818326834281 ], [ 80.016843452962419, 6.849872178893894 ], [ 80.016836680959216, 6.84986666194214 ], [ 80.016107946744, 6.848404237935144 ], [ 80.015378296198548, 6.847526323307139 ], [ 80.014282327582251, 6.847159278446958 ], [ 80.012236024056463, 6.84679073124135 ], [ 80.008507201182553, 6.847150146614327 ], [ 80.005801931834199, 6.84743810022356 ], [ 80.004584464102592, 6.847340334888736 ], [ 80.001160491826781, 6.847065365794911 ], [ 79.999771423780032, 6.847136201487368 ], [ 79.998454399756753, 6.84786472191424 ], [ 79.996184557077171, 6.850126038040732 ], [ 79.995597488363813, 6.851513298829818 ], [ 79.995522140125928, 6.852901385443178 ], [ 79.995229016961289, 6.853339293317155 ], [ 79.994863617608686, 6.85326563900585 ], [ 79.994426061593614, 6.852607359090891 ], [ 79.993696330408142, 6.851802478772838 ], [ 79.992819802627523, 6.851362677456222 ], [ 79.992015667660098, 6.851361373403877 ], [ 79.990547277740646, 6.851638443725053 ], [ 79.990480025690658, 6.851651133388872 ], [ 79.986527075859868, 6.854932545261857 ], [ 79.983671714546318, 6.857558150631488 ], [ 79.982132801882457, 6.859820586071454 ], [ 79.981618663484284, 6.861281006668674 ], [ 79.981882762131875, 6.862813664513102 ], [ 79.982197962266795, 6.864642873599315 ], [ 79.981758850248994, 6.864934403879416 ], [ 79.981393324963932, 6.864933801697778 ], [ 79.979712029864899, 6.864857964986887 ], [ 79.9782504139163, 6.864563296125367 ], [ 79.976567666646801, 6.865364204988237 ], [ 79.975729338267257, 6.865362814317473 ], [ 79.975397986277713, 6.86536226424632 ], [ 79.973278793890103, 6.864847298571275 ], [ 79.972256178920617, 6.864334152993816 ], [ 79.971745787211319, 6.863529607357211 ], [ 79.97163978949709, 6.8613375359277 ], [ 79.971061299449403, 6.857537287049401 ], [ 79.970699563105981, 6.855271725819577 ], [ 79.970116567075223, 6.854174805860469 ], [ 79.969753004705055, 6.853005188642467 ], [ 79.969755202180153, 6.851690055567124 ], [ 79.970197722587656, 6.84935277259939 ], [ 79.971005626286171, 6.847089160276119 ], [ 79.971007818416709, 6.845774026472246 ], [ 79.970644501387454, 6.844458284034182 ], [ 79.970061150117687, 6.843580554004805 ], [ 79.968747030517548, 6.842555478146574 ], [ 79.966701047869691, 6.842040617474018 ], [ 79.965742134358081, 6.842039012284497 ], [ 79.965165920787285, 6.84203804680293 ], [ 79.963044386338069, 6.842984305926465 ], [ 79.959459950454047, 6.844439527806215 ], [ 79.957558815754936, 6.844728565634377 ], [ 79.952439343603658, 6.846108067529558 ], [ 79.950172817864001, 6.846323389395513 ], [ 79.947102800442266, 6.846172009324211 ], [ 79.943632366217713, 6.84507010534498 ], [ 79.941878439148837, 6.844774831753278 ], [ 79.939904579019711, 6.84484448496476 ], [ 79.935885410975189, 6.844033829285269 ], [ 79.933327257828395, 6.843810190067942 ], [ 79.931499734312126, 6.843807001625677 ], [ 79.930329863873098, 6.843951081877353 ], [ 79.928500802703581, 6.844824628534014 ], [ 79.925134294657227, 6.847010586156664 ], [ 79.921254752650526, 6.84992623176813 ], [ 79.919497330076908, 6.85160355072095 ], [ 79.917372563625563, 6.854303079354284 ], [ 79.915979450614245, 6.856638589042166 ], [ 79.914477974923642, 6.858243277944999 ], [ 79.913819004080537, 6.858826597785341 ], [ 79.912793731569778, 6.85984763377289 ], [ 79.911987108921778, 6.861234369163669 ], [ 79.911253453491014, 6.862694295481522 ], [ 79.910740154348773, 6.863570119222821 ], [ 79.909056668563267, 6.864736087014657 ], [ 79.90766361319487, 6.866998500988622 ], [ 79.906562036883713, 6.869772868967996 ], [ 79.905681479367416, 6.871597827011067 ], [ 79.904069202795426, 6.873786767170641 ], [ 79.901800026556018, 6.875390012197779 ], [ 79.899970932988921, 6.876190366061895 ], [ 79.898801115730578, 6.876261296724209 ], [ 79.8966822672799, 6.875599873641762 ], [ 79.894089315870829, 6.874353079715243 ], [ 79.892994085067116, 6.873620454788015 ], [ 79.89027491295883, 6.872731719789425 ], [ 79.8895974645081, 6.873278958381607 ], [ 79.888768297273444, 6.873994473616017 ], [ 79.887855018079847, 6.87542687446375 ], [ 79.887189883957149, 6.87697004550502 ], [ 79.886301226114057, 6.880002043041786 ], [ 79.886183077198496, 6.884193762743273 ], [ 79.886757573013114, 6.886897523139927 ], [ 79.887248877461303, 6.889821757741254 ], [ 79.888015940516794, 6.892856816611907 ], [ 79.888840653730199, 6.894568211489315 ], [ 79.890107012364183, 6.89622526412183 ], [ 79.8922288629402, 6.897883891301177 ], [ 79.893331188388856, 6.898713278192744 ], [ 79.893826296444558, 6.899596703565756 ], [ 79.893988725406885, 6.901306874118193 ], [ 79.894317242020193, 6.902741564394727 ], [ 79.89475706054013, 6.903680044854282 ], [ 79.895196474571165, 6.904839152993723 ], [ 79.89525014523646, 6.905666609066134 ], [ 79.894861759810667, 6.906769038103604 ], [ 79.893920520200737, 6.908366863041544 ], [ 79.892980699571169, 6.909192488173199 ], [ 79.891710120372949, 6.909796871932414 ], [ 79.890219579985811, 6.909959588407366 ], [ 79.888590645106376, 6.910342671850749 ], [ 79.887321288683594, 6.91028516063908 ], [ 79.886383916838412, 6.909787006806715 ], [ 79.885391661555971, 6.909123278270088 ], [ 79.88390184384869, 6.908899877397977 ], [ 79.882963243144133, 6.909063599021752 ], [ 79.881140718089483, 6.909666923387253 ], [ 79.879317775472742, 6.91049086707535 ], [ 79.878213589868281, 6.910654268592793 ], [ 79.878084530030151, 6.910614319436817 ], [ 79.875484016396896, 6.911884847971389 ], [ 79.873800483161716, 6.912937936907324 ], [ 79.872308393277407, 6.914375474462638 ], [ 79.871248329769713, 6.916005870263651 ], [ 79.8704287542201, 6.917492682903969 ], [ 79.869945303423975, 6.91907615379637 ], [ 79.869797433373932, 6.921044353530933 ], [ 79.869265656764199, 6.922771766223721 ], [ 79.868638606856905, 6.924066891651031 ], [ 79.86765029956733, 6.925841445701408 ], [ 79.866687837691856, 6.926655812797613 ], [ 79.864475732381678, 6.927707852265047 ], [ 79.862744625352292, 6.928472730708657 ], [ 79.860244692276979, 6.929284139748087 ], [ 79.859330349840562, 6.930050570045337 ], [ 79.857982946102652, 6.931152246270106 ], [ 79.857212271145457, 6.932159005397831 ], [ 79.856825867398513, 6.933214514652402 ], [ 79.856824292894785, 6.934030707299555 ], [ 79.857158577725002, 6.935087604442391 ], [ 79.858331729997346, 6.937154358076123 ], [ 79.860294704656866, 6.940758996864241 ], [ 79.863169312179934, 6.945037540262018 ], [ 79.864391295251764, 6.946720285519394 ], [ 79.86458155247054, 6.947728892896497 ], [ 79.864195975774152, 6.948352305347195 ], [ 79.862222243504533, 6.950316995561039 ], [ 79.860969860381957, 6.951946982033688 ], [ 79.860150178118246, 6.953433762457516 ], [ 79.859715431112036, 6.954633213211696 ], [ 79.859665901104606, 6.95540130190574 ], [ 79.86031103418695, 6.957226981573735 ], [ 79.861124434030145, 6.959004973146745 ], [ 79.861170539580044, 6.960013303697537 ], [ 79.860928444887364, 6.960973067993164 ], [ 79.860495079710347, 6.96145234857324 ], [ 79.859821654702642, 6.961835142949113 ], [ 79.858955940368816, 6.962265576702163 ], [ 79.85836053250064, 6.962739648210349 ], [ 79.858610672266238, 6.96281149617972 ], [ 79.858784019869418, 6.962923913195835 ], [ 79.858864771069719, 6.963402964688305 ], [ 79.858944458704514, 6.964432234264788 ], [ 79.85911786603377, 6.964514082932021 ], [ 79.859332347210128, 6.96447374010861 ], [ 79.859312597928636, 6.964127266490278 ], [ 79.859232082512932, 6.963525944181375 ], [ 79.859303865213278, 6.963363054682932 ], [ 79.859589872565138, 6.963292281224774 ], [ 79.860028966629827, 6.96325237112548 ], [ 79.860539331741123, 6.963314490295254 ], [ 79.861192592066828, 6.963397262409079 ], [ 79.861702977285248, 6.963449190919436 ], [ 79.862172445626982, 6.963541797535135 ], [ 79.862377493463171, 6.963706579801716 ], [ 79.862519749430376, 6.963866231093097 ], [ 79.862616308375721, 6.96406563840182 ], [ 79.862661435628738, 6.964321868269784 ], [ 79.862700859873343, 6.964578086432394 ], [ 79.862899933274207, 6.964845995747282 ], [ 79.863076536894454, 6.964937407959202 ], [ 79.863378748049044, 6.96494937288311 ], [ 79.863698112177772, 6.964938601975234 ], [ 79.863937607274494, 6.964944754331809 ], [ 79.864262432493561, 6.965059218506691 ], [ 79.864530145040248, 6.965219110074206 ], [ 79.865041137790314, 6.965582022325288 ], [ 79.865450855473838, 6.966033370562521 ], [ 79.865911649856415, 6.966613954434108 ], [ 79.866298821996054, 6.966927760209632 ], [ 79.867080882811763, 6.967838164211534 ], [ 79.867484772078129, 6.968356914912298 ], [ 79.867679786021284, 6.96858326066285 ], [ 79.867935475451773, 6.969067575437511 ], [ 79.868048349763512, 6.969682534649468 ], [ 79.868150288119537, 6.970052713808314 ], [ 79.86830901568986, 6.970655952134991 ], [ 79.86843902051703, 6.971259559779261 ], [ 79.868540457971505, 6.971891572438498 ], [ 79.868625386939044, 6.972210490803599 ], [ 79.868710648591104, 6.972533306673922 ], [ 79.86894340436352, 6.973446907187276 ], [ 79.86913758336631, 6.974141103954841 ], [ 79.869255773970025, 6.974813472934739 ], [ 79.869124230291106, 6.975442000239603 ], [ 79.868970965190627, 6.976070485913341 ], [ 79.868979461655073, 6.976477152700353 ], [ 79.868980429090087, 6.976642883230562 ], [ 79.868988524089389, 6.978029676929286 ], [ 79.869007977151213, 6.981362609978311 ], [ 79.869062505737702, 6.981817492632735 ], [ 79.869107097953915, 6.982160821891622 ], [ 79.869222220204634, 6.982953087928404 ], [ 79.869310640024423, 6.983709274591979 ], [ 79.869168188702943, 6.984349694987487 ], [ 79.868960957110218, 6.985297522820102 ], [ 79.868945461773578, 6.985575177381534 ], [ 79.870644334488389, 6.986313073750921 ], [ 79.872171941042382, 6.987130868039872 ], [ 79.872934968254071, 6.987947200653274 ], [ 79.873388954079672, 6.99044362751076 ], [ 79.874300532621007, 6.99355208430527 ], [ 79.875062407219602, 6.994979570852327 ], [ 79.876487035926985, 6.996357387588761 ], [ 79.881070581141316, 6.998505137649778 ], [ 79.883838937981082, 6.999976179001139 ], [ 79.883782768659032, 6.999976073009104 ], [ 79.884851134374387, 7.001356722346144 ], [ 79.886860439577887, 7.004885370600204 ], [ 79.889312780871634, 7.00734479681948 ], [ 79.89390348330096, 7.011759480103866 ], [ 79.896732489346817, 7.014974909511049 ], [ 79.897673269154637, 7.017242651287514 ], [ 79.899492789306038, 7.021274463144459 ], [ 79.90049659365441, 7.023542319038046 ], [ 79.901784558874795, 7.025464508000819 ], [ 79.903733414748487, 7.027734112053451 ], [ 79.905115965861327, 7.029624997601731 ], [ 79.906500274626055, 7.030571719601718 ], [ 79.909584620979729, 7.03208806861567 ], [ 79.911283035596455, 7.033538911071953 ], [ 79.912162417344376, 7.034988245759608 ], [ 79.912600316396777, 7.036688546767405 ], [ 79.913037407991439, 7.038829456569314 ], [ 79.913727444353285, 7.04046727537236 ], [ 79.9150483369162, 7.041665638773204 ], [ 79.918160087486086, 7.04547946391209 ], [ 79.919732680951228, 7.046867109660251 ], [ 79.920929088891285, 7.047246955331747 ], [ 79.922063067071946, 7.047311962349108 ], [ 79.923449524492952, 7.047125646936942 ], [ 79.924363934919938, 7.046483285589479 ], [ 79.924521984072612, 7.046372257744776 ], [ 79.925343447756219, 7.045051910642949 ], [ 79.926354832728137, 7.043228348445956 ], [ 79.927806671656782, 7.041720300604323 ], [ 79.929133173860478, 7.039834353781512 ], [ 79.930458871428854, 7.038389012722346 ], [ 79.931152369710517, 7.03813848020729 ], [ 79.932602820609333, 7.037385746942142 ], [ 79.933865835492057, 7.03575144761415 ], [ 79.935443971927668, 7.034054761858362 ], [ 79.936326809918114, 7.033615724443711 ], [ 79.937650109495877, 7.033492193500471 ], [ 79.939415778553482, 7.032614107725278 ], [ 79.941244444951408, 7.031736126176297 ], [ 79.94203248993017, 7.031454270836313 ], [ 79.943104662539326, 7.030826720041986 ], [ 79.94367380964826, 7.029631774083802 ], [ 79.944683974514277, 7.028437605476403 ], [ 79.947459988404532, 7.026239423720845 ], [ 79.949098834613238, 7.02580168757762 ], [ 79.950610899964843, 7.025804338142306 ], [ 79.951304150805072, 7.025679661777401 ], [ 79.952755306519251, 7.024486243681724 ], [ 79.953637672934946, 7.024298948783456 ], [ 79.95483450244717, 7.024426925214049 ], [ 79.955482607023285, 7.024580472079517 ], [ 79.955905108241083, 7.024680569194933 ], [ 79.956912055252033, 7.025311770662428 ], [ 79.958733448955755, 7.028588077093525 ], [ 79.960494264939868, 7.030479481604602 ], [ 79.9610681633187, 7.030839217150628 ], [ 79.961501230860463, 7.031110675202495 ], [ 79.962068372475343, 7.031048710529405 ], [ 79.962762283449877, 7.030546348051785 ], [ 79.964215495026238, 7.028156938408669 ], [ 79.965037250683139, 7.026584723797246 ], [ 79.966362373481886, 7.025391043120638 ], [ 79.967560078182856, 7.025015427421378 ], [ 79.968725361929231, 7.02517478754022 ], [ 79.970676729546639, 7.026185249692789 ], [ 79.972877862325035, 7.02851798169833 ], [ 79.974136214289942, 7.02952724994763 ], [ 79.975449040581978, 7.030066424709387 ], [ 79.975521329459156, 7.030096113448713 ], [ 79.978230596356269, 7.030037763848155 ], [ 79.979741833575133, 7.030543883753003 ], [ 79.980937629195182, 7.031301248471771 ], [ 79.983264636045192, 7.033760042897218 ], [ 79.985215863780894, 7.034896342255339 ], [ 79.988931338466656, 7.03597264203256 ], [ 79.990380236301263, 7.036100953362459 ], [ 79.991703651212973, 7.035914323442683 ], [ 79.992965004746651, 7.035161076221315 ], [ 79.994511287913653, 7.033558532424042 ], [ 79.996907440087767, 7.0323665354126 ], [ 80.000627084796164, 7.03092492211692 ], [ 80.002771297781692, 7.029669531462782 ], [ 80.003780602905508, 7.028915837555211 ], [ 80.004474885473911, 7.028161625526101 ], [ 80.004803115572074, 7.027183190310557 ], [ 80.004854765850624, 7.027029223309534 ], [ 80.005047592489632, 7.024700544841561 ], [ 80.005426952626763, 7.023882869655911 ], [ 80.006751873847151, 7.022752008046176 ], [ 80.008393753415476, 7.020425686813464 ], [ 80.009340128889519, 7.019608929324729 ], [ 80.010600798743255, 7.019233300513102 ], [ 80.011293727064484, 7.019297369731224 ], [ 80.012867777264162, 7.019929376786798 ], [ 80.01374981788328, 7.01993080239394 ], [ 80.014712295526635, 7.019749249164914 ], [ 80.015073285886658, 7.019681154595078 ], [ 80.01563990554196, 7.019933851684557 ], [ 80.016520221275101, 7.021005350592339 ], [ 80.01752614190147, 7.022328834053045 ], [ 80.018973800896916, 7.023212403192369 ], [ 80.022090707658023, 7.024318950712373 ], [ 80.024798960160197, 7.024889786663896 ], [ 80.027382014000082, 7.024956840122943 ], [ 80.029651148679946, 7.024330975294816 ], [ 80.031226043070006, 7.02445935707029 ], [ 80.033682198274448, 7.025092690944448 ], [ 80.034753264545159, 7.025094375547427 ], [ 80.037716916729551, 7.023525368023911 ], [ 80.03992421257378, 7.02214399918674 ], [ 80.041690373956101, 7.020824878684517 ], [ 80.042447885356296, 7.01988186195021 ], [ 80.043899895715072, 7.017995726065164 ], [ 80.045288500926432, 7.016361271724457 ], [ 80.047780372420505, 7.014256416297425 ], [ 80.048916360915513, 7.012999237634899 ], [ 80.049610422760239, 7.012397558962874 ], [ 80.049610585344055, 7.01242758543446 ], [ 80.051177310508578, 7.012315467582057 ], [ 80.051962626009427, 7.011963836912098 ], [ 80.052173837032115, 7.011869265328673 ], [ 80.053818646496737, 7.010777330797579 ], [ 80.057407674941359, 7.008146166808831 ], [ 80.059053366731703, 7.006457238543541 ], [ 80.059602280261416, 7.005662104802023 ], [ 80.059752710754154, 7.004965862739605 ], [ 80.059555432359701, 7.003721867793389 ], [ 80.05910867113198, 7.002825729846409 ], [ 80.059179207369553, 7.002510848111071 ], [ 80.059208932613956, 7.002378151100004 ], [ 80.060304711639134, 7.002131070308726 ], [ 80.060731148711326, 7.002113963325203 ], [ 80.061499770754892, 7.002083128238536 ], [ 80.062594646931473, 7.002433015174875 ], [ 80.063887789394016, 7.003380172877452 ], [ 80.065628609765383, 7.004626487360418 ], [ 80.067121677270194, 7.005076458218938 ], [ 80.068863258283571, 7.005825283820189 ], [ 80.072097480221103, 7.007322546787736 ], [ 80.072893406042951, 7.007821210527065 ], [ 80.072992396822343, 7.008219341537824 ], [ 80.072984091499507, 7.008380493425347 ], [ 80.072941123104357, 7.009214224888371 ], [ 80.07244201781613, 7.010009450036158 ], [ 80.070996862207963, 7.010803264471625 ], [ 80.070398018868019, 7.011697834023466 ], [ 80.070396902821187, 7.012444051540276 ], [ 80.070493808576302, 7.014235122192704 ], [ 80.07049157585007, 7.015727557071926 ], [ 80.070289427118425, 7.017717172506198 ], [ 80.070486662138421, 7.019010913469723 ], [ 80.070783856206461, 7.020056064056751 ], [ 80.071430123949909, 7.020753500141392 ], [ 80.072076765223429, 7.021202196341987 ], [ 80.072573582543498, 7.021949156190884 ], [ 80.072970963251237, 7.022596471626668 ], [ 80.073867094402601, 7.022697301613574 ], [ 80.076406332683803, 7.022850316481153 ], [ 80.077899912597687, 7.023001772157976 ], [ 80.079145262719535, 7.022655376567266 ], [ 80.080938851873071, 7.021961548914662 ], [ 80.082035184163175, 7.021366185476066 ], [ 80.082732289897592, 7.021367209755328 ], [ 80.083628276458796, 7.021567516983064 ], [ 80.085569122152094, 7.022316580855072 ], [ 80.08693858639522, 7.022219085831118 ], [ 80.087585682647287, 7.022369274314023 ], [ 80.087834286482192, 7.022618377336068 ], [ 80.087882917339698, 7.023414417866575 ], [ 80.087631986727928, 7.024757250559469 ], [ 80.087929658637364, 7.02550390618836 ], [ 80.088775354155359, 7.026052367902913 ], [ 80.089422166289779, 7.026401546416098 ], [ 80.0895706776612, 7.026998739863853 ], [ 80.089518562490127, 7.028590603496395 ], [ 80.089615829280604, 7.030182684462419 ], [ 80.089963011356559, 7.031128403760102 ], [ 80.090410073605582, 7.031875275736615 ], [ 80.092250878801906, 7.032972408075021 ], [ 80.092797174511631, 7.033968162828399 ], [ 80.092895680235586, 7.034714527551165 ], [ 80.092745573148534, 7.035211791188918 ], [ 80.091998144002901, 7.035558943614395 ], [ 80.090951799461848, 7.036005156417509 ], [ 80.090701954880984, 7.036601770300351 ], [ 80.090651507297139, 7.037049429821185 ], [ 80.091372231218941, 7.037945943758662 ], [ 80.092316819313339, 7.038992026188344 ], [ 80.092763096330927, 7.040286124868808 ], [ 80.092760420013491, 7.04212680116746 ], [ 80.093007806868755, 7.043221618633646 ], [ 80.093851877557881, 7.044914278710341 ], [ 80.094248583699198, 7.046059060356475 ], [ 80.094247139099508, 7.047054020597787 ], [ 80.094344130930153, 7.048845093281907 ], [ 80.094690538753895, 7.050338038670829 ], [ 80.095012988636867, 7.051184223731592 ], [ 80.094962470019439, 7.051681631693786 ], [ 80.094213785627147, 7.052874501041302 ], [ 80.094212918001034, 7.053471477012766 ], [ 80.094759815961723, 7.054069247294279 ], [ 80.09605265988516, 7.055364570583627 ], [ 80.096350288479584, 7.056160971059718 ], [ 80.096498021659812, 7.057305391450624 ], [ 80.097292905055795, 7.058599991745631 ], [ 80.098635421808751, 7.059994877520719 ], [ 80.099131672895851, 7.061189548323671 ], [ 80.099129444994631, 7.062731737239064 ], [ 80.099078137524003, 7.063776373983547 ], [ 80.09795566694244, 7.065167701028448 ], [ 80.097854990128411, 7.065913777242003 ], [ 80.097997860823043, 7.066286474913018 ], [ 80.098103044752932, 7.066560861164695 ], [ 80.098749990322048, 7.066860284187608 ], [ 80.099945436755377, 7.066663015813791 ], [ 80.102087407710499, 7.066218363974391 ], [ 80.103033288680081, 7.066418714196566 ], [ 80.103580284018946, 7.066966728255609 ], [ 80.103778620324022, 7.067563990487167 ], [ 80.103627653175579, 7.068658233767713 ], [ 80.103225617848807, 7.071194813307948 ], [ 80.103272984696147, 7.072886318470591 ], [ 80.10352112145226, 7.073483652327907 ], [ 80.104317120517393, 7.07403202336704 ], [ 80.109195095812566, 7.075680678872219 ], [ 80.11068780231426, 7.076578268329511 ], [ 80.112130715304232, 7.077475782941399 ], [ 80.114319995585277, 7.078822082546096 ], [ 80.117555998091561, 7.079523117984905 ], [ 80.119267605700628, 7.079712076886494 ], [ 80.119952615845278, 7.07952648065868 ], [ 80.120949484528708, 7.078906021842222 ], [ 80.122509118076877, 7.076482968974034 ], [ 80.123318010545063, 7.075777904768381 ], [ 80.123506323941186, 7.075613762466257 ], [ 80.124628024607716, 7.074744726464417 ], [ 80.126683372086873, 7.073939166830969 ], [ 80.128426607121654, 7.073755021440437 ], [ 80.12960916945265, 7.07388102430818 ], [ 80.130480057611379, 7.074317522783374 ], [ 80.132532915090451, 7.075315313442388 ], [ 80.133715483406974, 7.07544130633045 ], [ 80.135022722004592, 7.075443095628272 ], [ 80.136267541381827, 7.075569167237795 ], [ 80.137449263330495, 7.076317005555835 ], [ 80.138941306137269, 7.077749304758807 ], [ 80.140310041639253, 7.078310833957715 ], [ 80.141057293946517, 7.078125290148977 ], [ 80.141307053079032, 7.077565957785594 ], [ 80.140937353147763, 7.074767103489383 ], [ 80.141249106555932, 7.074394411819369 ], [ 80.142121272145104, 7.073898106514093 ], [ 80.143490926000553, 7.073775584691472 ], [ 80.14601210876657, 7.073716792888262 ], [ 80.14831441832807, 7.074403923162533 ], [ 80.150554569124097, 7.075028773960424 ], [ 80.151550645744862, 7.07496791582515 ], [ 80.151811987613982, 7.074831606217299 ], [ 80.152858798397375, 7.074285612626782 ], [ 80.153544701110505, 7.073415922590029 ], [ 80.154044762118801, 7.071861941166658 ], [ 80.154420238809564, 7.070369979595458 ], [ 80.15442263242663, 7.068566594386665 ], [ 80.154485953892888, 7.067758262712394 ], [ 80.15492260151656, 7.067074796702093 ], [ 80.155608653506476, 7.066080730663183 ], [ 80.155796304303109, 7.065396934443887 ], [ 80.155798114872454, 7.064028848478106 ], [ 80.155798937739675, 7.063406991194255 ], [ 80.156135515996652, 7.062927995221687 ], [ 80.156235496686676, 7.062785709042891 ], [ 80.157294616003895, 7.062103060896806 ], [ 80.158165841459393, 7.062290765165806 ], [ 80.159223484539666, 7.06272745618829 ], [ 80.160282109899555, 7.062417915575423 ], [ 80.163023543772638, 7.060493737152797 ], [ 80.16377173507685, 7.059561923522772 ], [ 80.164021618305114, 7.058878203627382 ], [ 80.163712652918974, 7.057136594859914 ], [ 80.16371403241348, 7.056079435585109 ], [ 80.164245565540526, 7.054214548807357 ], [ 80.165180969443568, 7.052909859238511 ], [ 80.16624029597304, 7.052040629810353 ], [ 80.167236565844973, 7.051793176020829 ], [ 80.168045450741147, 7.0520429659772 ], [ 80.169226611743014, 7.053226025151978 ], [ 80.170906396590667, 7.053912235283834 ], [ 80.172275031200527, 7.054535854419451 ], [ 80.173331954624047, 7.05553218682287 ], [ 80.174451528543145, 7.056217666991679 ], [ 80.177500936182341, 7.056781232907873 ], [ 80.17893270724376, 7.056720866995485 ], [ 80.179991704155313, 7.056100349189992 ], [ 80.180678160775514, 7.054733123674978 ], [ 80.181180235014708, 7.051500079155191 ], [ 80.182178856812925, 7.049387010715604 ], [ 80.183113418088652, 7.048704140759543 ], [ 80.183860845772045, 7.048331964328066 ], [ 80.18498135950459, 7.048271186081942 ], [ 80.186413729440304, 7.047713305999354 ], [ 80.187161153274531, 7.047341123925537 ], [ 80.18809593707671, 7.046471684575683 ], [ 80.189403650871142, 7.046038011431766 ], [ 80.190026500156378, 7.045727855440583 ], [ 80.19049396576338, 7.045230946619006 ], [ 80.191242233465772, 7.044174709366519 ], [ 80.192303424559071, 7.041750759812214 ], [ 80.193238187574806, 7.04088130827327 ], [ 80.194420775743495, 7.040944955230115 ], [ 80.19566415241502, 7.042190214431839 ], [ 80.196783580016302, 7.043000014049501 ], [ 80.198152606725515, 7.043312626589905 ], [ 80.199895492201122, 7.043314760625759 ], [ 80.203133795638351, 7.042074980228419 ], [ 80.204129728357429, 7.042076189654859 ], [ 80.204813828149895, 7.042574510610605 ], [ 80.205309531565391, 7.04444070405298 ], [ 80.205742841154375, 7.046431194463858 ], [ 80.206051811271664, 7.048297161275777 ], [ 80.20630034562933, 7.048670580569311 ], [ 80.207109327020049, 7.048858117860289 ], [ 80.207668720476406, 7.049542844166987 ], [ 80.207667592335937, 7.050475639393647 ], [ 80.207292981553337, 7.051407983526094 ], [ 80.206544584418168, 7.052588620807096 ], [ 80.206232216776769, 7.053521039010303 ], [ 80.206355806363419, 7.054267425610996 ], [ 80.207411452906356, 7.056383040740966 ], [ 80.207783132894136, 7.057875963957061 ], [ 80.208529506871628, 7.05837435649932 ], [ 80.209648995887548, 7.059184129637375 ], [ 80.209772891936851, 7.059681770326855 ], [ 80.209522923184181, 7.060489892868331 ], [ 80.208836913821301, 7.061546235006038 ], [ 80.208711288931909, 7.062478879699595 ], [ 80.208959305950188, 7.063287602414266 ], [ 80.2098606358404, 7.064345858256949 ], [ 80.211229211687666, 7.065093742317606 ], [ 80.211788255043359, 7.066089396985213 ], [ 80.211724583865376, 7.067270862827017 ], [ 80.211288015085998, 7.067954388924471 ], [ 80.210166776466238, 7.068574903669473 ], [ 80.209169958739963, 7.069257752072506 ], [ 80.209044707409717, 7.069879464887635 ], [ 80.209291223512636, 7.071931913709358 ], [ 80.20903958955877, 7.074108133600657 ], [ 80.208476851116458, 7.076159603963806 ], [ 80.208039589355451, 7.077402802244014 ], [ 80.208287611080166, 7.07821152533794 ], [ 80.209157990817843, 7.079145373774803 ], [ 80.21021505167927, 7.080141632498449 ], [ 80.210587881104416, 7.080701759726093 ], [ 80.21064892979912, 7.081696815548652 ], [ 80.210212269072812, 7.082442525314352 ], [ 80.210614797442247, 7.084184229699944 ], [ 80.210800499672118, 7.085055063030675 ], [ 80.210861548662052, 7.08605011872084 ], [ 80.211234383092645, 7.086610245723182 ], [ 80.212602799373414, 7.087544689269754 ], [ 80.213099467128842, 7.088664641478238 ], [ 80.213782445047912, 7.090157935386969 ], [ 80.21471436253681, 7.091713713453374 ], [ 80.216020697288442, 7.092523701160214 ], [ 80.217576865765693, 7.09264993292482 ], [ 80.218572760818105, 7.092775492724671 ], [ 80.220873821434296, 7.094706007294368 ], [ 80.221869574727791, 7.09495593318261 ], [ 80.222492252831017, 7.094832297083193 ], [ 80.222804107390161, 7.094335173979601 ], [ 80.222992044383162, 7.093340412369723 ], [ 80.222683210578865, 7.091287893526033 ], [ 80.222870778056659, 7.090604063769302 ], [ 80.223368871557156, 7.090542465334715 ], [ 80.223990955728141, 7.090916318019524 ], [ 80.224922323549634, 7.092969569662321 ], [ 80.225792984317863, 7.093716831850452 ], [ 80.227659331777133, 7.09477619271227 ], [ 80.228467966033577, 7.095336818140263 ], [ 80.228902791273569, 7.096145751589905 ], [ 80.229274927641896, 7.097327730690378 ], [ 80.230269601983736, 7.098510436185239 ], [ 80.231482097097242, 7.099755580030371 ], [ 80.231854532441133, 7.100688811728448 ], [ 80.231977880391867, 7.101683940050485 ], [ 80.231602687101912, 7.103113793958079 ], [ 80.232099416144351, 7.104233729906241 ], [ 80.232366248431035, 7.104813007011113 ], [ 80.232844586335389, 7.105851446605912 ], [ 80.232905971905183, 7.106597756513326 ], [ 80.232655213690137, 7.10808994204999 ], [ 80.232715946672272, 7.109395929995314 ], [ 80.232963228227533, 7.110888694422477 ], [ 80.232837412832978, 7.112007905719721 ], [ 80.232274137794349, 7.11455689764448 ], [ 80.231743146591626, 7.116110941662726 ], [ 80.230246961449552, 7.117850416256672 ], [ 80.22881302136112, 7.119589958067102 ], [ 80.227877709744149, 7.120832589165537 ], [ 80.226381494340458, 7.122572048650122 ], [ 80.224697021944365, 7.125555008019105 ], [ 80.22408386235189, 7.126632841276919 ], [ 80.223636432944062, 7.12741934424592 ], [ 80.223260743643237, 7.129222304080473 ], [ 80.223632589720296, 7.130653032171576 ], [ 80.225248862459679, 7.132707097613475 ], [ 80.227518789983861, 7.134824115375053 ], [ 80.227704390682476, 7.135819316723185 ], [ 80.227516439421393, 7.136814077885235 ], [ 80.226331313943618, 7.138678271476614 ], [ 80.226019208329362, 7.139361952923474 ], [ 80.224584515041869, 7.141661150272159 ], [ 80.224146701870751, 7.14333966272437 ], [ 80.224145295964718, 7.144521201882707 ], [ 80.223459697535645, 7.145142250939762 ], [ 80.222650096917647, 7.145327846818962 ], [ 80.220283402602192, 7.146009072524955 ], [ 80.219161976973609, 7.146629593179246 ], [ 80.219128636653849, 7.146749746039911 ], [ 80.218661728503633, 7.148432395965294 ], [ 80.218847836385848, 7.148992295838925 ], [ 80.220838155420068, 7.150673709114116 ], [ 80.222128300498028, 7.151067576611616 ], [ 80.222269628467899, 7.151110722274334 ], [ 80.223484156114907, 7.150739050786846 ], [ 80.224792442741361, 7.150056555476009 ], [ 80.225913058540257, 7.150120070289779 ], [ 80.227655912641282, 7.150495249255408 ], [ 80.228775208436218, 7.151678110620001 ], [ 80.229279363197335, 7.152688188718748 ], [ 80.229582691682964, 7.153295907542897 ], [ 80.229455894732922, 7.155223536250362 ], [ 80.22908129878742, 7.156093704337952 ], [ 80.227897080938263, 7.157149475567537 ], [ 80.226463368091188, 7.158578065934638 ], [ 80.225465479495909, 7.160007168542997 ], [ 80.225339771621478, 7.161002000564146 ], [ 80.225461927475024, 7.162992107957859 ], [ 80.225273585593627, 7.164297796973255 ], [ 80.224587141272693, 7.165602893457838 ], [ 80.224710850904287, 7.166287089980543 ], [ 80.224782673510845, 7.166308703433505 ], [ 80.225333256009534, 7.166474388842312 ], [ 80.226703258536276, 7.166289455627907 ], [ 80.228571730316062, 7.165794175520796 ], [ 80.230065668218757, 7.166106869266964 ], [ 80.231311070042764, 7.165983961699273 ], [ 80.232308224711247, 7.165176709385798 ], [ 80.23343070346057, 7.163685550912841 ], [ 80.234178144454987, 7.163437679270286 ], [ 80.235049309600868, 7.163874001272045 ], [ 80.235981432090355, 7.165429748328058 ], [ 80.237412316175948, 7.166426395797617 ], [ 80.237910491584543, 7.166364787919721 ], [ 80.238533915399771, 7.16568146028733 ], [ 80.239531923330432, 7.164127954817393 ], [ 80.24015505348234, 7.163693370051302 ], [ 80.240839653642041, 7.163942906487961 ], [ 80.241833844081285, 7.16568527418838 ], [ 80.242267961281371, 7.167178249665042 ], [ 80.242452597399733, 7.169044056531028 ], [ 80.241542874708315, 7.175012908129049 ], [ 80.241134928696212, 7.175883358410093 ], [ 80.240669014952573, 7.176877491778571 ], [ 80.24054837999148, 7.177189670267306 ], [ 80.240044494748687, 7.178493616233098 ], [ 80.240105170969088, 7.179861787826007 ], [ 80.241223702324177, 7.181790861252815 ], [ 80.24420812220977, 7.185525488755077 ], [ 80.24507819324684, 7.186956777042588 ], [ 80.245543540862727, 7.188387599679428 ], [ 80.245106461796439, 7.189444267453976 ], [ 80.244232727714405, 7.191184483072203 ], [ 80.242487039057266, 7.193110249346653 ], [ 80.242050308238504, 7.193855981546048 ], [ 80.24092553472704, 7.197274931127358 ], [ 80.239678091672275, 7.199076888185808 ], [ 80.238741903783378, 7.200941389895682 ], [ 80.238241946116034, 7.202495466064339 ], [ 80.237741256946975, 7.204671403812337 ], [ 80.236959771307781, 7.207344502755533 ], [ 80.237332361864617, 7.208215546780715 ], [ 80.238390273025203, 7.208776458896098 ], [ 80.240009258232305, 7.208778344541482 ], [ 80.2420004833523, 7.209962196742303 ], [ 80.24361796094567, 7.211269982012876 ], [ 80.24405298043456, 7.212016720945993 ], [ 80.243989343161047, 7.2131981885351 ], [ 80.242741646844379, 7.215186709215967 ], [ 80.241929466417531, 7.217486662664799 ], [ 80.241927947201305, 7.218792573979232 ], [ 80.242175580983968, 7.220036587965072 ], [ 80.242610027094699, 7.221280818439805 ], [ 80.242794887145408, 7.222960063731994 ], [ 80.243447140648399, 7.22432891868785 ], [ 80.244380842817833, 7.2246409305452 ], [ 80.245439447918656, 7.224642152915697 ], [ 80.247176902659902, 7.223843765476599 ], [ 80.247869301912687, 7.223525594559302 ], [ 80.249303171499619, 7.222096951335921 ], [ 80.249989858563822, 7.220605263094225 ], [ 80.250863493687888, 7.218989413870382 ], [ 80.252109961664601, 7.218058037589278 ], [ 80.253480327709767, 7.217686476177263 ], [ 80.254227002725514, 7.218184814577696 ], [ 80.256030863874315, 7.219928076481369 ], [ 80.257336503732702, 7.221732957336802 ], [ 80.258207029479593, 7.222853294290246 ], [ 80.259203011806605, 7.223165346412394 ], [ 80.260012462700374, 7.223228441321837 ], [ 80.262442209090267, 7.222173988655945 ], [ 80.263999254855293, 7.221926977348415 ], [ 80.265057856935343, 7.221928153758569 ], [ 80.267299120674394, 7.222365942321608 ], [ 80.271502332531696, 7.222432755303711 ], [ 80.273869645424114, 7.221502544482526 ], [ 80.274617573462606, 7.22088149328872 ], [ 80.275802748254179, 7.219017182845641 ], [ 80.276801102501409, 7.21715266610578 ], [ 80.277361871572793, 7.216842340086979 ], [ 80.277735424968412, 7.216904930954667 ], [ 80.278792267653145, 7.218522926668677 ], [ 80.27978792202272, 7.219145867348776 ], [ 80.281282346630007, 7.2192096617664 ], [ 80.283026387995534, 7.21877622480039 ], [ 80.283524284974533, 7.219025504330326 ], [ 80.283897175083538, 7.219709956896865 ], [ 80.284143526626451, 7.222259875826329 ], [ 80.284641028659195, 7.222882274324694 ], [ 80.285636900299082, 7.223318643321006 ], [ 80.286321285454591, 7.223879052484287 ], [ 80.2864445013455, 7.225122918288448 ], [ 80.286350878755044, 7.226564077184063 ], [ 80.286005410196807, 7.227809510997881 ], [ 80.285637187934952, 7.229228162660908 ], [ 80.285727690278009, 7.230326873795818 ], [ 80.28636840206795, 7.231288844247921 ], [ 80.287330182090713, 7.232068052816953 ], [ 80.288200823742841, 7.232343631021255 ], [ 80.289163338333651, 7.232436202403617 ], [ 80.290722337703428, 7.231980094036198 ], [ 80.292511347606535, 7.230746035904501 ], [ 80.293657743967742, 7.230335258631899 ], [ 80.295399175085379, 7.230749062513987 ], [ 80.296178573981109, 7.230612549201838 ], [ 80.297279081020889, 7.23024749039978 ], [ 80.298379062210529, 7.230385960894845 ], [ 80.299524787695375, 7.23061602756029 ], [ 80.300304138114754, 7.230525282753105 ], [ 80.300854485215609, 7.230251197285734 ], [ 80.302092976644573, 7.229428511875983 ], [ 80.303147591340775, 7.229109166857372 ], [ 80.303927409739728, 7.228560658812676 ], [ 80.304432525578008, 7.227691437747914 ], [ 80.305074637441408, 7.227325889309556 ], [ 80.305945658196819, 7.227235228204052 ], [ 80.306954333795744, 7.227007378449336 ], [ 80.307596442858824, 7.226641826258095 ], [ 80.307618840912738, 7.226586072278939 ], [ 80.307719805356427, 7.226586174330187 ], [ 80.308267460170669, 7.225797911011961 ], [ 80.309221778242787, 7.225118644434864 ], [ 80.310039769516848, 7.224529935766839 ], [ 80.311040273441378, 7.223079778322499 ], [ 80.312540834113705, 7.221085933086829 ], [ 80.313631640663971, 7.220134699120566 ], [ 80.31481285347401, 7.219591694213813 ], [ 80.315584827040539, 7.219592466142053 ], [ 80.316946635281326, 7.220092664441402 ], [ 80.317900115422574, 7.220229660504957 ], [ 80.319171874128756, 7.219958828512083 ], [ 80.320397861658407, 7.220050740350702 ], [ 80.321214843032436, 7.220459689142495 ], [ 80.322711147570303, 7.22272861836827 ], [ 80.324253278833652, 7.224589446390917 ], [ 80.325478568988544, 7.225406930456805 ], [ 80.326477341563916, 7.225680001046889 ], [ 80.327567335781737, 7.225545016259169 ], [ 80.328430672811294, 7.225001666489247 ], [ 80.330879543215659, 7.222566522878578 ], [ 80.332129977281497, 7.220867135703588 ], [ 80.332585339276534, 7.219563785594626 ], [ 80.332643577942889, 7.218033307287656 ], [ 80.332475203134422, 7.216049119280953 ], [ 80.332703181602085, 7.21508566855603 ], [ 80.333384711430483, 7.214689517705238 ], [ 80.335655312000895, 7.214578317652337 ], [ 80.337471435575722, 7.214863480010227 ], [ 80.338946718249417, 7.215431745064855 ], [ 80.339683769688108, 7.216339426985462 ], [ 80.340478230716329, 7.216566923845474 ], [ 80.341102779891131, 7.216397453533399 ], [ 80.342296183093211, 7.214924727203682 ], [ 80.343148365444492, 7.214131915841731 ], [ 80.3447383473153, 7.213453165833619 ], [ 80.345590257773438, 7.212943782033621 ], [ 80.346102123068533, 7.211867214244873 ], [ 80.346953976261304, 7.211414514133814 ], [ 80.349395582334367, 7.210509791167315 ], [ 80.350758548285896, 7.20977412245838 ], [ 80.352470100647409, 7.20803258160102 ], [ 80.353037846833274, 7.207891385216829 ], [ 80.353676219926456, 7.208104544146611 ], [ 80.354171651404997, 7.209451304428943 ], [ 80.354596781461495, 7.21008941717315 ], [ 80.355447886193531, 7.210444484493152 ], [ 80.357079662913861, 7.210587684182629 ], [ 80.359208813639697, 7.209951885550643 ], [ 80.362260784127116, 7.208820895510362 ], [ 80.363396146608082, 7.208680194116305 ], [ 80.364034589800653, 7.208822480590203 ], [ 80.364814558577962, 7.209390042488574 ], [ 80.365665860382705, 7.209532516163127 ], [ 80.366801035295836, 7.209604381397699 ], [ 80.367936085221075, 7.209817960544954 ], [ 80.369283868676561, 7.210173441097878 ], [ 80.370347906593054, 7.210457810299082 ], [ 80.371767081941542, 7.210317337319816 ], [ 80.372831432039618, 7.210247408860206 ], [ 80.374108577750334, 7.21024852150327 ], [ 80.375882083961002, 7.210604353035866 ], [ 80.376520657528189, 7.210604905569071 ], [ 80.377798417043024, 7.209897423561285 ], [ 80.378791935608575, 7.20968570307501 ], [ 80.378807813581957, 7.209689946209294 ], [ 80.379855979546548, 7.209970050411994 ], [ 80.381381338208911, 7.210113072438406 ], [ 80.382232890353222, 7.209972081702269 ], [ 80.383936415145499, 7.209194085922793 ], [ 80.384929930029102, 7.208982351855153 ], [ 80.386987670622489, 7.208842370886107 ], [ 80.389259337362375, 7.207427104909844 ], [ 80.390679506824014, 7.206081976879294 ], [ 80.391674074945712, 7.204594773312252 ], [ 80.39252720424146, 7.202540580881602 ], [ 80.393450337215185, 7.201620182507494 ], [ 80.394798881343746, 7.201054425849595 ], [ 80.396076296178208, 7.200701182677596 ], [ 80.39969515688432, 7.20027898608524 ], [ 80.401398101013569, 7.200138649510584 ], [ 80.40260461521892, 7.199714471631911 ], [ 80.403456543328971, 7.199077429165213 ], [ 80.40452280314102, 7.196598229522233 ], [ 80.4056601146481, 7.193977365799127 ], [ 80.406692480700912, 7.192705812359319 ], [ 80.406867457422564, 7.19249029456093 ], [ 80.408429879289997, 7.190578348462952 ], [ 80.410098488051219, 7.188949915263741 ], [ 80.41151826017618, 7.187959009365659 ], [ 80.411621239162642, 7.187894166153004 ], [ 80.411621354835802, 7.188090579528088 ], [ 80.412438496699536, 7.187827255640678 ], [ 80.413609232732639, 7.187213034063388 ], [ 80.41410249982728, 7.186536767794939 ], [ 80.414473157673385, 7.185122240388168 ], [ 80.414597925873423, 7.183092383556678 ], [ 80.41515373677386, 7.181185889081945 ], [ 80.415956385406005, 7.178664447114086 ], [ 80.416481579824648, 7.1765118712529 ], [ 80.416852220768916, 7.175097340546587 ], [ 80.41814742806217, 7.172760814695942 ], [ 80.418887837997346, 7.171038996966066 ], [ 80.419073696564851, 7.169624321688384 ], [ 80.418889684061838, 7.168639959281719 ], [ 80.419198153162426, 7.167963543798348 ], [ 80.421232023788619, 7.16611968336074 ], [ 80.422033437137898, 7.16513607175858 ], [ 80.422958539698456, 7.163475899828629 ], [ 80.424438261352066, 7.161385547340824 ], [ 80.426225495692734, 7.159849045250676 ], [ 80.42699632376771, 7.15855783123225 ], [ 80.428538472009308, 7.155298745716578 ], [ 80.429586660061219, 7.15370016332275 ], [ 80.430019192777067, 7.151793552236991 ], [ 80.430944101279678, 7.150317902387029 ], [ 80.431935926910469, 7.148543655590149 ], [ 80.433040836973717, 7.146567095792598 ], [ 80.434767748648625, 7.143185091488372 ], [ 80.435293256819705, 7.140417344963176 ], [ 80.435479901569281, 7.137833892591202 ], [ 80.435111690450782, 7.136049717900484 ], [ 80.434939574227712, 7.135726807373488 ], [ 80.434619681279585, 7.135126648798816 ], [ 80.43468207653487, 7.134019442039415 ], [ 80.435422580821111, 7.131990018923589 ], [ 80.436964304887397, 7.129099978552046 ], [ 80.438198176757396, 7.126086681729227 ], [ 80.439216665599062, 7.122827169427625 ], [ 80.440820137011215, 7.119629586461868 ], [ 80.442422664617297, 7.117723792131541 ], [ 80.44421005837313, 7.115633579910089 ], [ 80.444377370437181, 7.115387246877377 ], [ 80.44550464480605, 7.113727555495812 ], [ 80.446306734577703, 7.111575124600378 ], [ 80.446246104885645, 7.11022177073038 ], [ 80.445631454437503, 7.108560456604524 ], [ 80.44569333989007, 7.108129901066126 ], [ 80.445867110139972, 7.108043264196759 ], [ 80.446309375050177, 7.107822763130063 ], [ 80.447849179561715, 7.107454756427571 ], [ 80.448527309944637, 7.106409488719168 ], [ 80.448928406143978, 7.105240998725946 ], [ 80.449544606722057, 7.104687799561101 ], [ 80.450345250932813, 7.104565326670557 ], [ 80.45151512792161, 7.104812192623655 ], [ 80.452562267512306, 7.104443829198783 ], [ 80.453609955154619, 7.10327577895356 ], [ 80.454596182767617, 7.101923141380381 ], [ 80.454966721488844, 7.100385538843158 ], [ 80.454415021861308, 7.096694308140948 ], [ 80.454662564160955, 7.094910564326382 ], [ 80.455525903642609, 7.093127239730768 ], [ 80.456820001758118, 7.091774805078633 ], [ 80.457830214024156, 7.091220669314246 ], [ 80.458052054980797, 7.091098981526766 ], [ 80.459468719257387, 7.090607821458659 ], [ 80.460700889517483, 7.089747447760079 ], [ 80.461871681329967, 7.088579458160467 ], [ 80.462734366260833, 7.087718832156495 ], [ 80.464613104109063, 7.086858876644584 ], [ 80.465660558570121, 7.085936852465213 ], [ 80.466769466551639, 7.085199409022906 ], [ 80.468432259246995, 7.084954439060282 ], [ 80.469541120641253, 7.084278503017021 ], [ 80.470711836873747, 7.083172003673099 ], [ 80.470958789366634, 7.082187933564044 ], [ 80.47059191064433, 7.07818926219328 ], [ 80.470839298494056, 7.076528533938857 ], [ 80.471456030755704, 7.075052586810992 ], [ 80.473550933333883, 7.073085471965546 ], [ 80.475646209889518, 7.07050320281655 ], [ 80.47712585154197, 7.06767447659567 ], [ 80.477430321907676, 7.066634080234259 ], [ 80.477160995757188, 7.066656330180908 ], [ 80.476680694222566, 7.06610726689653 ], [ 80.476269711058521, 7.064529322826645 ], [ 80.476545975945925, 7.061991484357998 ], [ 80.476546976025887, 7.060413800843759 ], [ 80.475861563163662, 7.05849270778798 ], [ 80.474832317605276, 7.057394534864659 ], [ 80.473871169529957, 7.057188137743641 ], [ 80.472566268150999, 7.057667468033724 ], [ 80.470917916738273, 7.058352358167713 ], [ 80.470162668716014, 7.058283275914713 ], [ 80.469407599023228, 7.057939812850016 ], [ 80.467555000022671, 7.055949356672793 ], [ 80.465427362050676, 7.054576067588027 ], [ 80.464603910931643, 7.053820982785826 ], [ 80.464329623821527, 7.053272043065606 ], [ 80.464674109140475, 7.05148880182858 ], [ 80.464983674243939, 7.050597271186396 ], [ 80.464710065658096, 7.049019408255285 ], [ 80.464092428505069, 7.048538837671557 ], [ 80.461964151159734, 7.048194457520934 ], [ 80.460179596262904, 7.04723294290172 ], [ 80.459287689070379, 7.046203424196536 ], [ 80.458601722556722, 7.045242636756305 ], [ 80.458191139130577, 7.04318451468736 ], [ 80.457986309507561, 7.04146950477501 ], [ 80.457438088171287, 7.039891454037881 ], [ 80.457301922128394, 7.038176489866713 ], [ 80.456685139340991, 7.036461202423817 ], [ 80.456274014923721, 7.035226217210774 ], [ 80.456343599990845, 7.033854365778918 ], [ 80.457099590367378, 7.032757355448846 ], [ 80.45792382178962, 7.032277743798784 ], [ 80.459846412066241, 7.032073242854554 ], [ 80.4610828211664, 7.031250924880025 ], [ 80.461735762706581, 7.030222432919184 ], [ 80.462011124399766, 7.029125095547142 ], [ 80.463179225324083, 7.027753966476127 ], [ 80.463591853279652, 7.026725313152094 ], [ 80.46386729848679, 7.025490784327173 ], [ 80.464486391718623, 7.023707720482154 ], [ 80.465792548489532, 7.021170558880494 ], [ 80.466617554982804, 7.019456220546565 ], [ 80.46727182348117, 7.019108138949744 ], [ 80.467647769307405, 7.018908128928762 ], [ 80.468540400843139, 7.01877151631872 ], [ 80.471012101398188, 7.018704511380916 ], [ 80.474239683524075, 7.017609046963186 ], [ 80.476231817512243, 7.015895427907521 ], [ 80.477743556556788, 7.013838523675723 ], [ 80.478569063587344, 7.011232425195105 ], [ 80.479257121224805, 7.008832024490704 ], [ 80.480288277890622, 7.006706215625379 ], [ 80.480975469543424, 7.005677713850861 ], [ 80.48234912491138, 7.004786824128235 ], [ 80.483860127287329, 7.003827419057219 ], [ 80.484890958335384, 7.00218176445828 ], [ 80.485575220539232, 7.000806828309321 ], [ 80.485392306608048, 6.999399017743798 ], [ 80.485637968673245, 6.998358693675186 ], [ 80.486128508241492, 6.997563335322355 ], [ 80.487323425222485, 6.996890811062948 ], [ 80.488978132544133, 6.995606516486458 ], [ 80.48989771626546, 6.994382980694212 ], [ 80.492411632267448, 6.990344989698701 ], [ 80.494679941974141, 6.987224904650765 ], [ 80.495844731036613, 6.985634273160609 ], [ 80.497560452502569, 6.984656003158663 ], [ 80.499552098216483, 6.983188250442062 ], [ 80.502677786596763, 6.980252229914025 ], [ 80.504332602219989, 6.978600649904115 ], [ 80.508010647580122, 6.973645155301677 ], [ 80.511351350280634, 6.969362692242591 ], [ 80.511903540330565, 6.967710473800951 ], [ 80.51172069112944, 6.96605785084637 ], [ 80.511598657377789, 6.965200920211639 ], [ 80.511844241313469, 6.964160578049494 ], [ 80.512518491182988, 6.963304084405083 ], [ 80.514417788042508, 6.962448257566798 ], [ 80.516194573494843, 6.961592356672963 ], [ 80.517297775486441, 6.960368859690784 ], [ 80.518463338886676, 6.957064437239157 ], [ 80.519229705534499, 6.9557183454612 ], [ 80.520271504006658, 6.95473962615846 ], [ 80.524438558901423, 6.951008337937377 ], [ 80.525787195230379, 6.948866877340344 ], [ 80.526645149731223, 6.948010456624956 ], [ 80.527993105586944, 6.947154286377319 ], [ 80.532404909769639, 6.943667866953282 ], [ 80.533201592947066, 6.942811402542556 ], [ 80.533784236665298, 6.941281577678425 ], [ 80.533049824539262, 6.940118319558777 ], [ 80.532621447409412, 6.939383647533878 ], [ 80.532805782328495, 6.938220851015787 ], [ 80.533664626553204, 6.935528275210523 ], [ 80.534584739887904, 6.93277452308168 ], [ 80.535626577503947, 6.931550947361616 ], [ 80.54019129919169, 6.92806452245178 ], [ 80.544234850451303, 6.925618283376235 ], [ 80.545276501666862, 6.924700708677535 ], [ 80.545644541584466, 6.923537992669639 ], [ 80.545277610384204, 6.922374927012322 ], [ 80.545216771438945, 6.921518030873928 ], [ 80.546196990089626, 6.920967653241212 ], [ 80.548707582044926, 6.922131727934788 ], [ 80.550483700264081, 6.922254966787725 ], [ 80.552076473340961, 6.921521246860342 ], [ 80.553301786177826, 6.920726148071961 ], [ 80.555446303662407, 6.918829777343823 ], [ 80.557162408023871, 6.916198745092002 ], [ 80.55946016966692, 6.913935194583631 ], [ 80.562829824116591, 6.911427283662698 ], [ 80.563503959649921, 6.910448300331578 ], [ 80.563688152340646, 6.909407897430962 ], [ 80.563198855861941, 6.907877561025956 ], [ 80.561852018338456, 6.906591667080384 ], [ 80.56160738751386, 6.905795895594276 ], [ 80.562158972843235, 6.904939269587499 ], [ 80.564180626498327, 6.903654850302219 ], [ 80.564242138143612, 6.903042827846526 ], [ 80.564303702892857, 6.902308395537434 ], [ 80.563691868136672, 6.900900415916324 ], [ 80.563968563173631, 6.898391134331795 ], [ 80.563540440105669, 6.897044439296216 ], [ 80.561887949467291, 6.894534313743019 ], [ 80.561337240021089, 6.893432382677713 ], [ 80.561092697199854, 6.892452995944391 ], [ 80.559317693756796, 6.890065217745945 ], [ 80.559379209342907, 6.889453195704342 ], [ 80.559869427016054, 6.888841363816393 ], [ 80.561523343304955, 6.888046429589037 ], [ 80.562993177455823, 6.888047073563397 ], [ 80.564708329076765, 6.887252154781518 ], [ 80.565994537539098, 6.887007890041627 ], [ 80.567586985671468, 6.886702547656845 ], [ 80.568597754480351, 6.886090928274021 ], [ 80.569210624248754, 6.885050703444016 ], [ 80.569456450247074, 6.883031042785891 ], [ 80.569701704766501, 6.882357891468136 ], [ 80.570865798918121, 6.881195486526592 ], [ 80.572825907400826, 6.880339435040582 ], [ 80.575949432403291, 6.879912287710094 ], [ 80.576929281077327, 6.879973892506683 ], [ 80.578337577320781, 6.880647718919573 ], [ 80.578888683074979, 6.880831556383701 ], [ 80.579746098862799, 6.880770696054856 ], [ 80.580419885798065, 6.880464940665274 ], [ 80.581338859856615, 6.879608436499224 ], [ 80.582869984445381, 6.879425427885134 ], [ 80.584585001812769, 6.878814050868058 ], [ 80.585871702101826, 6.877223220465855 ], [ 80.586668176923922, 6.876366657968681 ], [ 80.587525607648587, 6.876244578384842 ], [ 80.588444115469542, 6.876550956168537 ], [ 80.589423376320369, 6.878142661965834 ], [ 80.590770420674076, 6.878877633925565 ], [ 80.592546187005013, 6.879551557768645 ], [ 80.594169171214276, 6.879368547266827 ], [ 80.595026492678898, 6.879552479765569 ], [ 80.596251245256099, 6.879797750673818 ], [ 80.596985837927576, 6.880654890729181 ], [ 80.59710767401053, 6.882429882853621 ], [ 80.597536215317362, 6.882858474683873 ], [ 80.598577116946458, 6.883470903428062 ], [ 80.600230624187063, 6.883593909200632 ], [ 80.602496971017558, 6.882554229470498 ], [ 80.604518788180371, 6.880229145899821 ], [ 80.605866796852212, 6.878271050922289 ], [ 80.606663491969996, 6.876679992832103 ], [ 80.608746338477403, 6.874844551955797 ], [ 80.609787569326841, 6.874477674207287 ], [ 80.6118698423479, 6.874294758132714 ], [ 80.614503066103708, 6.874785270888128 ], [ 80.617380926434052, 6.876316336011754 ], [ 80.618544147749489, 6.87747960766962 ], [ 80.619278641147574, 6.878765150572188 ], [ 80.620197059210597, 6.879438698976275 ], [ 80.620993091822314, 6.879806181297556 ], [ 80.621299091141324, 6.880479534393802 ], [ 80.62123763687201, 6.88115277189061 ], [ 80.620624922595468, 6.882070656251948 ], [ 80.619644730646939, 6.883049628233187 ], [ 80.61949123403889, 6.884273682476202 ], [ 80.619489966050509, 6.888252016579105 ], [ 80.619979348400449, 6.890027121225014 ], [ 80.620958897086197, 6.891129123711856 ], [ 80.621387390805594, 6.891802515219345 ], [ 80.621325915566544, 6.892536957509043 ], [ 80.620958046258167, 6.893822149357253 ], [ 80.620161523889578, 6.894923589603581 ], [ 80.620161400726786, 6.895311222025643 ], [ 80.62016134886666, 6.89547443567515 ], [ 80.620834880611682, 6.895964289945971 ], [ 80.622243480467347, 6.896025938049214 ], [ 80.625734425486471, 6.895965812838415 ], [ 80.628000391587946, 6.896211320728641 ], [ 80.629225169008961, 6.896578918643732 ], [ 80.630510957213602, 6.897742198412037 ], [ 80.631184286554088, 6.898966500014425 ], [ 80.63148989794351, 6.901047564753752 ], [ 80.632040905498087, 6.901720982900666 ], [ 80.632959367755731, 6.902455712571604 ], [ 80.634306602694025, 6.903006948776056 ], [ 80.635837838605894, 6.902640156479777 ], [ 80.637369331084585, 6.901355281993106 ], [ 80.638716841586302, 6.900927223366577 ], [ 80.640003172450292, 6.900254323347644 ], [ 80.640554662912194, 6.899213987404965 ], [ 80.640432459890761, 6.89817346594471 ], [ 80.63991215115918, 6.89719403985832 ], [ 80.638748915008875, 6.895724793243427 ], [ 80.638198093034248, 6.894378125766132 ], [ 80.638198435612225, 6.893154022346456 ], [ 80.638627587371275, 6.891562807402126 ], [ 80.640649203826996, 6.889482389723835 ], [ 80.644140575589475, 6.88764717823245 ], [ 80.647264414592399, 6.885995460766326 ], [ 80.648244557234193, 6.885016431304021 ], [ 80.648887986080027, 6.883547671572576 ], [ 80.650113636011042, 6.880426517775811 ], [ 80.651522949452797, 6.877489022039994 ], [ 80.65182943567838, 6.876387404372615 ], [ 80.651584806346591, 6.87504082750371 ], [ 80.650544301962995, 6.872653560443812 ], [ 80.649809935283045, 6.870572395340032 ], [ 80.649840929775536, 6.869103476884894 ], [ 80.649963676199249, 6.868063018527439 ], [ 80.650331245124676, 6.86757346956529 ], [ 80.652597320089754, 6.866900779840515 ], [ 80.653883660046972, 6.865738197296038 ], [ 80.654679891413494, 6.865309955257247 ], [ 80.655476017424974, 6.86531014885849 ], [ 80.657006926464746, 6.865738954463542 ], [ 80.659272725284097, 6.866167928085553 ], [ 80.661354750000513, 6.866841669987728 ], [ 80.663498090612961, 6.867209390270456 ], [ 80.666131509280206, 6.86690395083563 ], [ 80.66698897261557, 6.866475701714757 ], [ 80.667111587540887, 6.865863675384909 ], [ 80.666193828305225, 6.862007539616306 ], [ 80.665091997242214, 6.85980390458909 ], [ 80.663928744117499, 6.858457127732357 ], [ 80.662459230650185, 6.857416305112404 ], [ 80.662061453925844, 6.856192107978245 ], [ 80.662122833053701, 6.855580068732661 ], [ 80.662490393863891, 6.855029304509322 ], [ 80.663470400010823, 6.854233857044068 ], [ 80.663899252231445, 6.853438284137058 ], [ 80.664450936329956, 6.851051399382368 ], [ 80.664451373858142, 6.849092828440228 ], [ 80.664880233355447, 6.848236049043176 ], [ 80.66641182154315, 6.845359735134667 ], [ 80.667820611767866, 6.843891112718896 ], [ 80.669413080038225, 6.842544935791246 ], [ 80.670974753975528, 6.841994416868843 ], [ 80.672689543245085, 6.841321513577632 ], [ 80.674588274736649, 6.839485738844263 ], [ 80.676976803173233, 6.838078490685453 ], [ 80.677773028030089, 6.837344181875076 ], [ 80.678140616335298, 6.836487377793487 ], [ 80.67832460005188, 6.835079689149894 ], [ 80.678692150106102, 6.834406500756298 ], [ 80.679427059341805, 6.834039409622046 ], [ 80.68071306104622, 6.833856037995279 ], [ 80.681631688757179, 6.833427772703606 ], [ 80.682734148481003, 6.832326279971303 ], [ 80.684632651259264, 6.831347339940419 ], [ 80.68665353202951, 6.830858057372305 ], [ 80.688490615957221, 6.830858378063807 ], [ 80.688980568114076, 6.830491229788907 ], [ 80.689164475707074, 6.829328357976923 ], [ 80.688889103423293, 6.828226612800919 ], [ 80.689011722123141, 6.827369757628929 ], [ 80.689808025398833, 6.825962168222137 ], [ 80.690420421824896, 6.825717450017592 ], [ 80.692379916985416, 6.825962598090491 ], [ 80.693359735011995, 6.825656730972644 ], [ 80.693972188536904, 6.825044775492065 ], [ 80.694278591708624, 6.82363709917769 ], [ 80.693483060144956, 6.820393081184578 ], [ 80.692687198163483, 6.819230047625537 ], [ 80.690544242537669, 6.817699555358859 ], [ 80.689748329686012, 6.81690374979051 ], [ 80.689687272191392, 6.815863246364239 ], [ 80.690697924651232, 6.814149663510735 ], [ 80.692412859086829, 6.811824139525341 ], [ 80.694985190777089, 6.808580663362911 ], [ 80.697006088916098, 6.807295664182 ], [ 80.698781970495489, 6.806500263595083 ], [ 80.70080278709284, 6.805643686849058 ], [ 80.702027551990412, 6.804909398595687 ], [ 80.702885047291275, 6.803256972212439 ], [ 80.704844729117383, 6.801543492124646 ], [ 80.707110476438331, 6.800442100168709 ], [ 80.70818206579618, 6.80025862536105 ], [ 80.710141490903624, 6.800320084065117 ], [ 80.711611103835693, 6.80001424102147 ], [ 80.712101007092031, 6.799647068319517 ], [ 80.712468497756092, 6.798851441316261 ], [ 80.713448336719765, 6.79781106585125 ], [ 80.714673077197133, 6.796954333890631 ], [ 80.717612329991923, 6.795852971035682 ], [ 80.721347529307252, 6.795241318115679 ], [ 80.723062083361185, 6.794568232068912 ], [ 80.724286786769554, 6.793833886636595 ], [ 80.727960780787114, 6.792671326324156 ], [ 80.730471312551742, 6.792120696226244 ], [ 80.733073636654538, 6.792182116242506 ], [ 80.734665617147783, 6.792610679621363 ], [ 80.736686273336758, 6.792304801937427 ], [ 80.737359808922832, 6.79242726131314 ], [ 80.738094563436121, 6.792733340759842 ], [ 80.739257914008959, 6.793406681491048 ], [ 80.739625258019942, 6.794079967370093 ], [ 80.739747632158881, 6.795426498238491 ], [ 80.739992506791793, 6.796222186851692 ], [ 80.740482345351936, 6.796467040987946 ], [ 80.741339587075586, 6.796528301074021 ], [ 80.742196843953195, 6.79634473733279 ], [ 80.743360330828466, 6.794937078471534 ], [ 80.744523814368478, 6.793468211119836 ], [ 80.745748512262352, 6.79218296091318 ], [ 80.746728231798897, 6.791815778853461 ], [ 80.74819778158674, 6.791815852369027 ], [ 80.749238698495574, 6.792121929709628 ], [ 80.750402090139318, 6.792183187846189 ], [ 80.75125932043133, 6.79236684155404 ], [ 80.751871595941736, 6.793284950876554 ], [ 80.752422627594726, 6.794570290489964 ], [ 80.753279858226477, 6.794876351793773 ], [ 80.754137101055989, 6.794876383646637 ], [ 80.75536175021314, 6.794386781815167 ], [ 80.756629262768058, 6.793774767027652 ], [ 80.759617381623656, 6.79289349028425 ], [ 80.762213600857336, 6.792452867834936 ], [ 80.765348651214225, 6.791963274358856 ], [ 80.766622261012174, 6.792012253881105 ], [ 80.767063122875868, 6.792355009649832 ], [ 80.767357024821024, 6.793285337422645 ], [ 80.767699910700387, 6.794509452227427 ], [ 80.768630628956345, 6.794803245872439 ], [ 80.769855261257021, 6.794852216582799 ], [ 80.770883953823287, 6.794166716813208 ], [ 80.772059599291225, 6.793921895025482 ], [ 80.77284336300113, 6.79406878724897 ], [ 80.773708553225077, 6.794558985394037 ], [ 80.77465582348303, 6.795243926959713 ], [ 80.775341617933151, 6.795194957834595 ], [ 80.776321320984408, 6.794803233729778 ], [ 80.777447976487409, 6.794264612502523 ], [ 80.777812123500482, 6.794243926641688 ], [ 80.779677482903821, 6.793693001645088 ], [ 80.780661775843043, 6.793146380657456 ], [ 80.781044546230859, 6.792435788470885 ], [ 80.780989847161493, 6.791615883765501 ], [ 80.779075897881128, 6.789320180350362 ], [ 80.778364993995424, 6.787516397684899 ], [ 80.77814624027593, 6.785821928355874 ], [ 80.778200903133367, 6.78434609683517 ], [ 80.778802386876563, 6.782760936727587 ], [ 80.778802369294127, 6.781558407790437 ], [ 80.778583624498069, 6.780410542349396 ], [ 80.777714169542278, 6.779514123132935 ], [ 80.775876848963193, 6.778508390761473 ], [ 80.775133172612328, 6.777939928250917 ], [ 80.775052794276647, 6.777784258550746 ], [ 80.774900474332171, 6.777692903554176 ], [ 80.77415830250149, 6.776833890452123 ], [ 80.773604637439504, 6.776487987152701 ], [ 80.772556784905419, 6.77620915592747 ], [ 80.770095924880451, 6.7751158590226 ], [ 80.769399716028957, 6.774711119080581 ], [ 80.769265401998965, 6.774593638132037 ], [ 80.76901054991562, 6.774370725459474 ], [ 80.767356594025884, 6.773592675461504 ], [ 80.766383677853383, 6.773446783644379 ], [ 80.765167526418153, 6.773787160417051 ], [ 80.764243251176097, 6.773981656590708 ], [ 80.762540647395085, 6.773787117947379 ], [ 80.761665014016017, 6.774127492252852 ], [ 80.761421774003495, 6.774613760894264 ], [ 80.760994649988362, 6.775389067268631 ], [ 80.7597446376504, 6.777497535393796 ], [ 80.758377446808126, 6.778981257031171 ], [ 80.757400891937337, 6.779527876616456 ], [ 80.756385285565642, 6.779684030586701 ], [ 80.755525940649932, 6.779371632777034 ], [ 80.753963535968822, 6.777770682266657 ], [ 80.752010514107752, 6.776521127173752 ], [ 80.751073086512349, 6.775466839625635 ], [ 80.750816946262589, 6.774662047986276 ], [ 80.751352078688555, 6.774029914880545 ], [ 80.752081777461484, 6.773786808043162 ], [ 80.753103337751099, 6.773884102976588 ], [ 80.753881668828811, 6.773981386900365 ], [ 80.754562718654398, 6.773786901919324 ], [ 80.754903256827674, 6.773300640081867 ], [ 80.755073543149337, 6.77254692163273 ], [ 80.755024944139677, 6.77118535341535 ], [ 80.755122286901525, 6.769677907974957 ], [ 80.755608783743597, 6.768413612380156 ], [ 80.755706112911014, 6.767246558351031 ], [ 80.755073792872949, 6.765252814223753 ], [ 80.75400365131641, 6.763891209503415 ], [ 80.751766057009846, 6.762140536773402 ], [ 80.750501340425146, 6.761070680598194 ], [ 80.748944810029528, 6.758979632155393 ], [ 80.747436888712713, 6.757861129097979 ], [ 80.746464017640804, 6.757569315229118 ], [ 80.745637059658876, 6.757666526471424 ], [ 80.744712801964099, 6.757958240531274 ], [ 80.742815610022873, 6.759027934470038 ], [ 80.74150213508338, 6.760243539685688 ], [ 80.740042748069854, 6.761021485263878 ], [ 80.738096926201834, 6.761556256121664 ], [ 80.735761967421126, 6.761750598862661 ], [ 80.734618807850708, 6.761872081577356 ], [ 80.731116295788922, 6.762990231981199 ], [ 80.729900162875509, 6.76313601118544 ], [ 80.727711163192566, 6.762941308693029 ], [ 80.725862724671785, 6.762260354739607 ], [ 80.723625196493131, 6.760947199524035 ], [ 80.721484999499566, 6.759342279775477 ], [ 80.720949925833878, 6.759196342140706 ], [ 80.720366192688104, 6.759196280947564 ], [ 80.719539195702254, 6.759585212127628 ], [ 80.719101384988164, 6.759682419792822 ], [ 80.718517677853498, 6.759439219467623 ], [ 80.717788140391775, 6.758272082023261 ], [ 80.717350368540096, 6.758028896437057 ], [ 80.716474765456752, 6.758077425313871 ], [ 80.715428853680848, 6.758587893103257 ], [ 80.714212733109022, 6.75868500581521 ], [ 80.712753454967313, 6.758247184927679 ], [ 80.711780646259484, 6.757614910253712 ], [ 80.710564710703608, 6.756253192453515 ], [ 80.709348732122876, 6.755280490671036 ], [ 80.70754898641178, 6.754648101039417 ], [ 80.705895131124777, 6.754356116191042 ], [ 80.705298360462933, 6.754493700352192 ], [ 80.703997956950488, 6.754793502707425 ], [ 80.700835907636915, 6.756105992209748 ], [ 80.69708994669611, 6.758488173906201 ], [ 80.695265642831757, 6.759387497192952 ], [ 80.692930608215633, 6.760019280708791 ], [ 80.690060542950135, 6.760261944687499 ], [ 80.687044626059418, 6.760018292872628 ], [ 80.684855642019528, 6.75992065265276 ], [ 80.683396246337608, 6.760260781581437 ], [ 80.681936821752529, 6.760746788128262 ], [ 80.680963912763858, 6.760843862452518 ], [ 80.678580432202864, 6.760308511656173 ], [ 80.677461580584861, 6.760454178388421 ], [ 80.676075111782552, 6.760964495059189 ], [ 80.675102089336519, 6.761625634679076 ], [ 80.674090273418429, 6.761664334702854 ], [ 80.672027884904381, 6.760963683254763 ], [ 80.669381768717273, 6.760262900814165 ], [ 80.66759165202356, 6.760262521325827 ], [ 80.666774382923279, 6.760456855172224 ], [ 80.665412107690955, 6.761506909761726 ], [ 80.664283235233299, 6.762946030477854 ], [ 80.662804121653608, 6.764346168284187 ], [ 80.661091335324258, 6.766485383293126 ], [ 80.660468624817966, 6.766718652338676 ] ] ] ] } }
]
}
